"","Business","addresses","Zip.Code","Care.Type","long","lat","geoAddress"
"1","Magna Recreation Child Care Center","3270 South 8400 West, Magna, Utah",84044,"Center Licensed",-112.0924399,40.6999283,"3270 s 8400 w, magna, ut 84044, usa"
"2","Lesly's Friends Child Care","1144 West Lafayette Drive, Salt Lake City, Utah",84116,"Family Licensed",-111.923997,40.7847347,"1144 lafayette dr, salt lake city, ut 84116, usa"
"3","Family, Friends & Neighbor","97 W Princeton Dr, Midvale, Utah",84047,"Family, Friends & Neighbor",-111.8946499,40.5988649,"97 princeton dr, midvale, ut 84047, usa"
"4","Family, Friends & Neighbor","3514 S Lilloet St, West Valley City, Utah",84120,"Family, Friends & Neighbor",-112.009742,40.696225,"3514 lilloet st, west valley city, ut 84120, usa"
"5","Residential Certified","3993 S West Temple, Salt Lake City, Utah",84107,"Residential Certified",-111.8939667,40.6851641,"3993 s w temple, millcreek, ut 84107, usa"
"6","Family Licensed","5115 South 1045 East, Holladay, Utah",84117,"Family Licensed",-111.8617351,40.658398,"5115 s 1045 e, salt lake city, ut 84117, usa"
"7","University Kids Learning Center","545 Guardsman Way, Salt Lake City, Utah",84108,"Center Licensed",-111.8433972,40.7571064,"545 guardsman way, salt lake city, ut 84108, usa"
"8","Family, Friends & Neighbor","3783 S. 700 W., West Valley City, Utah",84119,"Family, Friends & Neighbor",-111.9110576,40.6897504,"3783 s 700 w, west valley city, ut 84119, usa"
"9","Family Licensed","150 E Garden Ave, South Salt Lake, Utah",84115,"Family Licensed",-111.8864753,40.7072243,"150 garden ave, south salt lake, ut 84115, usa"
"10","Family Licensed","3146 West Jennifer Dee Circle, Riverton, Utah",84065,"Family Licensed",-111.9663655,40.536477,"3146 jennifer dee cir, riverton, ut 84065, usa"
"11","Midvale Community Building Community","695 West Center Street, Midvale, Utah",84047,"Exempt Afterschool Program",-111.9099831,40.6103091,"695 w center st, midvale, ut 84047, usa"
"12","Alicia's Daycare","6275 S.Dewdrops Drive, West Jordan, Utah",84081,"Family Licensed",-112.0214717,40.6372257,"6275 dewdrops dr, west jordan, ut 84081, usa"
"13","Montessori of Sandy","181 East 8960 South, Sandy, Utah",84070,"Center Licensed",-111.8847397,40.5890533,"181 e 8960 s, sandy, ut 84070, usa"
"14","Little Acre Daycare","12530 South 3450 West, Riverton, Utah",84065,"Family Licensed",-111.9734682,40.5237569,"12530 s 3450 w, riverton, ut 84065, usa"
"15","Jackson After School Program","750 West 200 North, Salt Lake City, Utah",84116,"Exempt Afterschool Program",-111.9127563,40.7747498,"750 w 200 n, salt lake city, ut 84116, usa"
"16","Hillside Middle School","1825 S Nevada St., Salt Lake City, Utah",84108,"Registered Teen Program",-111.8234015,40.7312762,"1825 e nevada st, salt lake city, ut 84108, usa"
"17","West High School","241 N 300 W, Salt Lake City, Utah",84103,"Registered Teen Program",-111.900351,40.7747787,"241 n 300 w, salt lake city, ut 84103, usa"
"18","Bryant Middle School","40 South 800 East, Salt Lake City, Utah",84102,"Registered Teen Program",-111.868484,40.76747,"40 s 800 e, salt lake city, ut 84102, usa"
"19","Deynaba Alagaba","1448 N Mandalay Rd, Salt Lake City, Utah",84116,"Residential Certified",-111.94519,40.801282,"1448 mandalay rd w, salt lake city, ut 84116, usa"
"20","Here We Grow","12243 South 700 West, Draper, Utah",84020,"Center Licensed",-111.9098388,40.5283484,"12243 s 700 w, draper, ut 84020, usa"
"21","Luisa's Family Daycare","4400 South 500 East, Murray, Utah",84107,"Family Licensed",-111.877322,40.675863,"4400 s 500 e, murray, ut 84107, usa"
"22","Raquel's Daycare","4867 W Odell Drive, West Valley City, Utah",84120,"Family Licensed",-112.007243,40.6946889,"4867 odell dr, west valley city, ut 84120, usa"
"23","Promise South Salt Lake - Hser Ner Moo Center","479 E 2250 S, Salt Lake City, Utah",84115,"Exempt Afterschool Program - DWS Approved",-111.8772293,40.7216295,"479 e 2250 s, south salt lake, ut 84115, usa"
"24","Love Daycare","10881 Topview Road, South Jordan, Utah",84095,"Family Licensed",-111.995507,40.553759,"10881 topview rd, south jordan, ut 84095, usa"
"25","Murray Library","166 E 5300 S, Murray, Utah",84107,"Exempt Center",-111.8863943,40.6556811,"166 e 5300 s, murray, ut 84107, usa"
"26","SLCAP Head Start- James R. Russell Center","1240 North American Beauty Drive, Salt Lake City, Utah",84116,"Center Licensed",-111.9211122,40.7957864,"1240 american beauty dr, salt lake city, ut 84116, usa"
"27","Star Brite Kids","1180 East 10600 South, Sandy, Utah",84094,"Center Licensed",-111.8570294,40.5584053,"1180 10600 s, sandy, ut 84094, usa"
"28","Residential Certified","1175 E Carmelita Dr, Salt Lake City, Utah",84106,"Residential Certified",-111.857569,40.693349,"1175 carmelita dr s, millcreek, ut 84106, usa"
"29","Magna Elementary Afterschool Program","8500 West 3100 South, Magna, Utah",84044,"Exempt Afterschool Program",-112.0950052,40.7040224,"8500 w 3100 s, magna, ut 84044, usa"
"30","ABC Great Beginnings-South Jordan","724 West Shields Lane, South Jordan, Utah",84095,"Center Licensed",-111.9111727,40.5716789,"724 shields ln, south jordan, ut 84095, usa"
"31","After School Program at Evergreen Jr. High","3401 S 200 E, Salt Lake City, Utah",84109,"Exempt Afterschool Program",-111.88537,40.697506,"3401 s 200 e, south salt lake, ut 84115, usa"
"32","Discovery Bay Daycare","248 East 13800 South, Draper, Utah",84020,"Center Licensed",-111.883009,40.5001788,"248 13800 s, draper, ut 84020, usa"
"33","Summit Academy Preschool","1225 E 13200 S, Draper, Utah",84020,"Exempt Center - Schoolbased",-111.8555502,40.5122146,"1225 13200 s, draper, ut 84020, usa"
"34","Family Licensed","2961 W Minuet Ave, West Valley City, Utah",84119,"Family Licensed",-111.963133,40.682975,"2961 minuet ave, west valley city, ut 84119, usa"
"35","Arias Family Child Care","11599 S Country Crossing Rd, South Jordan, Utah",84009,"Family Licensed",-111.9913928,40.5405251,"11599 country crossing rd, south jordan, ut 84095, usa"
"36","I Care Daycare","451 East Granite Avenue, South Salt Lake City, Utah",84115,"Family Licensed",-111.8784993,40.7037357,"451 e granite ave, south salt lake, ut 84115, usa"
"37","My Child Care Academy","13302 Herriman Rose Blvd., Herriman, Utah",84096,"Family Licensed",-112.0170266,40.5101321,"13302 herriman rose blvd, herriman, ut 84096, usa"
"38","Family Licensed","5345 South Knollcrest Street, Murray, Utah",84107,"Family Licensed",-111.880343,40.654929,"5345 knollcrest st, murray, ut 84107, usa"
"39","Oquirrh Hills Elementary School","5241 South 4280 West, Salt Lake City, Utah",84118,"Exempt Afterschool Program",-111.9931484,40.6555681,"5241 s 4280 w, kearns, ut 84118, usa"
"40","Bennion Learning Center","3337 West 6200 South, Taylorsville, Utah",84129,"Center Licensed",-111.970576,40.6383528,"3337 w 6200 s, salt lake city, ut 84129, usa"
"41","Residential Certified","1484 West 3500 South, West Valley City, Utah",84119,"Residential Certified",-111.933841,40.69842,"1484 w 3500 s, west valley city, ut 84119, usa"
"42","Residential Certified","2532 W Morning Dove Cir, West Valley City, Utah",84119,"Residential Certified",-111.9546,40.70013,"2532 morning dove cir, west valley city, ut 84119, usa"
"43","L'Emmanuel Child Care","3890 S Cheryl Street, West Valley City, Utah",84119,"Family Licensed",-111.956053,40.687208,"3890 s cheryl st, west valley city, ut 84119, usa"
"44","Creative Imaginations","4890 South 4095 West, Taylorsville, Utah",84118,"Family Licensed",-111.989118,40.6630449,"4890 s 4095 w, kearns, ut 84118, usa"
"45","Family Licensed","336 West 500 North, Salt Lake City, Utah",84103,"Family Licensed",-111.9008028,40.7804924,"336 w 500 n, salt lake city, ut 84103, usa"
"46","Let Me Shine Christian Playschool and Preschool","1070 South Foothill Drive, Salt Lake City, Utah",84108,"Center Licensed",-111.8315544,40.7458508,"1070 foothill dr, salt lake city, ut 84108, usa"
"47","Neli's Daycare","4179 S  Alice Way, West Valley City, Utah",84119,"Family Licensed",-111.963712,40.6802138,"4179 w alice way, west valley city, ut 84119, usa"
"48","Lois Banks Day Care","4537 Wander Lane, Holladay, Utah",84117,"Family Licensed",-111.816533,40.672536,"4537 s wander ln, holladay, ut 84117, usa"
"49","Eccles ECD Lab School (SLCC Child Dev. Ctr.)","4600 South Redwood Road, Salt Lake City, Utah",84130,"Center Licensed",-111.9472654,40.6762837,"facilities crafts shops, 4600 s redwood rd, salt lake city, ut 84123, usa"
"50","Family, Friends & Neighbor","1786 W. Shannon Cir, Salt Lake City, Utah",84116,"Family, Friends & Neighbor",-111.9419496,40.7790493,"1786 shannon cir, salt lake city, ut 84116, usa"
"51","Family Day Care","1253 West Bateman place, West Jordan, Utah",84084,"Family Licensed",-111.92784,40.626537,"1253 bateman pl, west jordan, ut 84084, usa"
"52","Second Avenues Preschool, The","91 North R Street, Salt Lake City, Utah",84103,"Center Licensed",-111.8640747,40.771544,"91 n st e, salt lake city, ut 84103, usa"
"53","Family Licensed","1472 West Mango Road, Murray, Utah",84123,"Family Licensed",-111.933556,40.682296,"1472 mango rd, taylorsville, ut 84123, usa"
"54","Alta Children's Center","10520 E Day Lodge Rd, Alta, Utah",84092,"Hourly Center Licensed",-111.6287756,40.5908184,"10520 e day lodge rd, alta, ut 84092, united states"
"55","Smart Kids - Redwood","4995 South Redwood Road, Taylorsville, Utah",84123,"Center Licensed",-111.9380214,40.6604859,"4995 s redwood rd, taylorsville, ut 84123, usa"
"56","Family Licensed","4500 West 4895 South, Kearns, Utah",84118,"Family Licensed",-111.99834,40.663096,"4500 w 4895 s, kearns, ut 84118, usa"
"57","Esperanza After School Program","4956 W 3500 S, West Valley City, Utah",84120,"Exempt Afterschool Program - DWS Approved",-112.0090597,40.6979024,"4956 w 3500 s, west valley city, ut 84120, usa"
"58","Family, Friends & Neighbor","3273 W Montrone Dr, West Valley City, Utah",84119,"Family, Friends & Neighbor",-111.969269,40.706378,"3273 montrone dr, west valley city, ut 84119, usa"
"59","Family, Friends & Neighbor","859 W 700 N, Salt Lake City, Utah",84116,"Family, Friends & Neighbor",-111.9159757,40.7842379,"859 w 700 n, salt lake city, ut 84116, usa"
"60","Redeemer Lutheran","1955 E Stratford Ave, Salt Lake City, Utah",84106,"Exempt Afterschool Program",-111.8350871,40.7157174,"1955 stratford ave s, salt lake city, ut 84106, usa"
"61","Ariadna Daycare","11856 South Oakridge, Sandy, Utah",84094,"Family Licensed",-111.862053,40.5359399,"11856 oakridge rd, sandy, ut 84094, usa"
"62","Salt Lake County After-School Program at Matheson Jr. High","3650 South Montclair Street, Magna, Utah",84044,"Exempt Afterschool Program",-112.077393,40.693983,"3650 montclair st, magna, ut 84044, usa"
"63","Ann's Day Care","332 West 500 North, Salt Lake City, Utah",84103,"Family Licensed",-111.9006798,40.7804721,"332 w 500 n, salt lake city, ut 84103, usa"
"64","Residential Certified","1332 West Crystal Avenue, West Valley City, Utah",84119,"Residential Certified",-111.9297704,40.7145039,"1332 w 2590 s, west valley city, ut 84119, usa"
"65","Early Scholars","4703 S 1175 W, Taylorsville, Utah",84123,"Exempt In Home",-111.924964,40.667362,"4703 1175 w, taylorsville, ut 84123, usa"
"66","Family, Friends & Neighbor","1583 E Sego Lily Dr, Sandy, Utah",84092,"Family, Friends & Neighbor",-111.844944,40.5643273,"1583 east sego lily drive, sandy, ut 84092, usa"
"67","Granite Park Jr. High","3031 South 200 East, Salt Lake City, Utah",84115,"Exempt Afterschool Program",-111.884242,40.703804,"3031 s 200 e, south salt lake, ut 84115, usa"
"68","Family Licensed","4952 South 4015 West, Taylorsville, Utah",84129,"Family Licensed",-111.987228,40.661612,"4952 4015 w, kearns, ut 84118, usa"
"69","Berensen and Associates","11341 South Berg Hollow Lane, South Jordan, Utah",84095,"Family Licensed",-111.9137651,40.5453556,"11341 berg hollow ln, south jordan, ut 84095, usa"
"70","Happy Hands Preschool","4144 W Yorkshire Dr, South Jordan, Utah",84009,"Exempt In Home",-111.9898294,40.576788,"4144 yorkshire dr, south jordan, ut 84095, usa"
"71","Residential Certified","3907 South 6620 West, West Valley City, Utah",84128,"Residential Certified",-112.0488413,40.6866731,"3907 s 6620 w, west valley city, ut 84128, usa"
"72","Family Licensed","8859 South 280 East, Sandy, Utah",84070,"Family Licensed",-111.8818717,40.5905216,"8859 s 280 e, sandy, ut 84070, usa"
"73","TJ's Daycare","3848 West Sage Rim Cove, South Jordan, Utah",84095,"Family Licensed",-111.9826042,40.5626567,"3848 sage rim cove, south jordan, ut 84095, usa"
"74","Miss Amy's Day Care","940 West Walden Meadows Drive, Murray, Utah",84123,"Family Licensed",-111.91793,40.652023,"940 walden meadows dr, murray, ut 84123, usa"
"75","Family, Friends & Neighbor","705 S Redwood Rd, Salt Lake City, Utah",84104,"Family, Friends & Neighbor",-111.936638,40.753957,"705 s redwood rd, salt lake city, ut 84104, usa"
"76","Small World Child Care-West Jordan","7908 South Old Bingham Highway, West Jordan, Utah",84088,"Center Licensed",-111.970981,40.6076964,"7908 old bingham hwy, west jordan, ut 84088, usa"
"77","Family, Friends & Neighbor","5769 Marco Rd, Salt Lake City, Utah",84121,"Family, Friends & Neighbor",-111.85944,40.646415,"5769 marco rd, murray, ut 84121, usa"
"78","Devlin's Child Development Center-Sandy","9310 South State Street, Sandy, Utah",84070,"Center Licensed",-111.8918186,40.5822823,"9310 state st, sandy, ut 84070, usa"
"79","Family Licensed","4709 W Black Powder Dr, Herriman, Utah",84096,"Family Licensed",-112.003174,40.529072,"4709 w black powder dr, herriman, ut 84096, usa"
"80","Family, Friends & Neighbor","9902 S Blossom Dr, Sandy, Utah",84092,"Family, Friends & Neighbor",-111.852644,40.571548,"9902 blossom dr, sandy, ut 84092, usa"
"81","Family Licensed","3903 South 4840 West, West Valley City, Utah",84120,"Family Licensed",-112.006457,40.6868448,"3903 s 4840 w, west valley city, ut 84120, usa"
"82","South Kearns Afterschool Program","170 W Price Ave, Salt Lake City, Utah",84115,"Exempt Afterschool Program - DWS Approved",-111.8962681,40.6926064,"170 price ave, south salt lake, ut 84115, usa"
"83","Family, Friends & Neighbor","4987 W Bridle Creek Dr, West Jordan, Utah",84081,"Family, Friends & Neighbor",-112.0098222,40.6164899,"4987 bridle creek dr, west jordan, ut 84081, usa"
"84","Panda Child Care","581 North Redwood Road, Salt Lake City, Utah",84116,"Center Licensed",-111.9396887,40.7822764,"581 n redwood rd, salt lake city, ut 84116, usa"
"85","Hunter High Preschool Lab","4200 S 5600 W, West Valley City, Utah",84120,"Exempt Center - Schoolbased",-112.024288,40.679755,"4200 s 5600 w, west valley city, ut 84120, usa"
"86","Puddle Jumpers Child Development","802 North 2200 West, Salt Lake City, Utah",84116,"Center Licensed",-111.9528084,40.7868974,"802 2200 w, salt lake city, ut 84116, usa"
"87","Tender Loving Care Teaching Learning Center","1035 West Indiana Avenue, Salt Lake City, Utah",84104,"Center Licensed",-111.921736,40.750983,"1035 w indiana ave, salt lake city, ut 84104, usa"
"88","Heather Brown's Daycare","1751 South 500 East, Salt Lake City, Utah",84105,"Family Licensed",-111.8765084,40.7322836,"1751 s 500 e, salt lake city, ut 84105, usa"
"89","Mary's Day Care","6074 W 6200 S, Kearns, Utah",84118,"Family Licensed",-112.035918,40.6387829,"6074 w 6200 s, kearns, ut 84118, usa"
"90","Residential Certified","3228 West 10755 South, South Jordan, Utah",84095,"Residential Certified",-111.9684348,40.555691,"3228 w 10755 s, south jordan, ut 84095, usa"
"91","Devlin's Child Development Center","2156 South 1000 East, Salt Lake City, Utah",84106,"Center Licensed",-111.8630958,40.7242186,"2156 s 1000 e, salt lake city, ut 84106, usa"
"92","Hillcrest Jr. Huskies","7350 S 900 E, Midvale, Utah",84047,"Exempt Center - Schoolbased",-111.866422,40.6171685,"7350 south 900 east, midvale, ut 84047, usa"
"93","Spartan Station","5440 S State Street, Murray, Utah",84107,"Exempt Center - Schoolbased",-111.8902196,40.6537926,"5440 state st, murray, ut 84107, usa"
"94","Murray Boy's and Girl's Club J.R. Center","244 E Myrtle Ave, Murray, Utah",84107,"Exempt Afterschool Program",-111.8853732,40.6610816,"244 e myrtle ave, murray, ut 84107, usa"
"95","Promise South Salt Lake - Utah International Charter School","320 E Baird Cir, Salt Lake City, Utah",84115,"Exempt Afterschool Program",-111.8823446,40.6929461,"320 baird cir, south salt lake, ut 84115, usa"
"96","Utah International Community School","350 E Baird Circle, Salt Lake City, Utah",84119,"Exempt Afterschool Program",-111.8817432,40.6929373,"350 baird cir, south salt lake, ut 84115, usa"
"97","Salt Lake County After-School Program at Kennedy Jr. High","4495 South 4800 West, West Valley City, Utah",84120,"Exempt Afterschool Program",-112.003838,40.672342,"4495 s 4800 w, west valley city, ut 84120, usa"
"98","ABC Great Beginnings- Redwood","3672 Redwood Road, West Valley City, Utah",84119,"Center Licensed",-111.9405385,40.692211,"3672 s redwood rd, west valley city, ut 84119, usa"
"99","Amy's Home Daycare","3703 West Bryce Canyon Drive, Riverton, Utah",84065,"Family Licensed",-111.9789481,40.5153759,"3703 bryce canyon dr, riverton, ut 84065, usa"
"100","Family, Friends & Neighbor","4568 W Ripple Creek Circle, West Jordan, Utah",84088,"Family, Friends & Neighbor",-111.9997502,40.5864505,"4568 ripple creek cir, west jordan, ut 84088, usa"
"101","Family Licensed","6564 Daffodil Way, West Jordan, Utah",84084,"Family Licensed",-112.0196686,40.6321129,"6564 s daffodil way, west jordan, ut 84081, usa"
"102","Residential Certified","6100 Country Hills Drive, Taylorsville, Utah",84129,"Residential Certified",-111.9830059,40.6404022,"6100 3840 w, taylorsville, ut 84129, usa"
"103","Daydreams and Fun Things","6287 West 3740 South, West Valley City, Utah",84128,"Family Licensed",-112.0411555,40.6905272,"6287 w 3740 s, west valley city, ut 84128, usa"
"104","Allison Cannon","4121 South 380 East, Millcreek, Utah",84107,"Family Licensed",-111.880196,40.681831,"4121 s 380 e, murray, ut 84107, usa"
"105","Family Licensed","2485 West 3935 South, West Valley City, Utah",84119,"Family Licensed",-111.9538488,40.6859328,"2485 w 3935 s, west valley city, ut 84119, usa"
"106","Residential Certified","6885 South Redwood Road #2310, West Jordan, Utah",84084,"Residential Certified",-111.9372936,40.6260564,"6885 s redwood rd, west jordan, ut 84084, usa"
"107","Wasatch Family Foundation","1458 E Murray-Holladay Road, Holladay, Utah",84117,"Exempt Center - Schoolbased",-111.8500175,40.6662462,"1458 e murray holladay rd, holladay, ut 84117, usa"
"108","Guardian Angel Daycare","300 E 11800 S, Draper, Utah",84020,"Exempt Center - Schoolbased",-111.8821236,40.5360539,"300 11800 s, draper, ut 84020, usa"
"109","Family Licensed","5250 South 2200 West, Taylorsville, Utah",84129,"Family Licensed",-111.948741,40.6560119,"5250 2200 w, salt lake city, ut 84129, usa"
"110","Skool Days Child Care Center- Draper","PO Box 300, Draper, Utah",84020,"Center Licensed",-111.8638226,40.5246711,"draper, ut, usa"
"111","Skool Days Child Care Center- Sandy","P.O. Box 300, Sandy, Utah",84020,"Center Licensed",-111.8389726,40.5649781,"sandy, ut, usa"
"112","Skool Days Child Care Center-Riverton","PO Box 300, Draper, Utah",84020,"Center Licensed",-111.8638226,40.5246711,"draper, ut, usa"
"113","Children's Campus Daycare","5208 West Holder Drive, West Valley City, Utah",84120,"Family Licensed",-112.0153658,40.6798867,"5208 holder dr, west valley city, ut 84120, usa"
"114","Country Kids Academy","1648 Country Terrace Circle, Sandy, Utah",84092,"Family Licensed",-111.8449849,40.5340555,"1648 country terrace cir, sandy, ut 84092, usa"
"115","Residential Certified","4463 west copper pot lane, West Jordan, Utah",84088,"Residential Certified",-111.9973842,40.5937511,"4463 copper pot ln, west jordan, ut 84088, usa"
"116","Utah Community Action Head Start - Horizonte","1307 S 900 W, Salt Lake City, Utah",84104,"Exempt Center",-111.9166561,40.7412981,"1307 s 900 w, salt lake city, ut 84104, usa"
"117","Utah Community Action Head Start - Shriver","1307 S 900 W, Salt Lake City, Utah",84104,"Exempt Center",-111.9166561,40.7412981,"1307 s 900 w, salt lake city, ut 84104, usa"
"118","Utah Community Action Head Start - James R Russell 5, 6, 7, 9, 10, 15","1307 S 900 W, Salt Lake City, Utah",84104,"Exempt Center",-111.9166561,40.7412981,"1307 s 900 w, salt lake city, ut 84104, usa"
"119","Family, Friends & Neighbor","8492 W Elk Meas Rd, Magna, Utah",84404,"Family, Friends & Neighbor",-112.0961654,40.6935108,"8492 elk mesa rd, magna, ut 84044, usa"
"120","Little Blessings Daycare","5882 Vogue Court, Herriman, Utah",84096,"Family Licensed",-112.0313747,40.5049041,"5882 vogue ct, herriman, ut 84096, usa"
"121","Family Licensed","815 North 1400 West, Salt Lake City, Utah",84116,"Family Licensed",-111.9313258,40.7870337,"815 n 1400 w, salt lake city, ut 84116, usa"
"122","Meadowbrook STEM Center","220 E Morris Ave, Salt Lake City, Utah",84115,"Exempt Afterschool Program",-111.8850754,40.7173946,"220 e morris ave, south salt lake, ut 84115, usa"
"123","Family Licensed","5662 Walnut View Dr., Kearns, Utah",84118,"Family Licensed",-112.02588,40.641183,"5662 walnut view dr, kearns, ut 84118, usa"
"124","Family, Friends & Neighbor","451 E Wilson Ave, Salt Lake City, Utah",84115,"Family, Friends & Neighbor",-111.8781512,40.7320041,"451 wilson ave s, salt lake city, ut 84115, usa"
"125","Youth City - Sorenson","210 E 600 S, Salt Lake City, Utah",84111,"Exempt Afterschool Program - DWS Approved",-111.8850304,40.7563065,"210 e 600 s, salt lake city, ut 84111, usa"
"126","Family Licensed","6128 South Hazelhurst Dr, Taylorsville, Utah",84129,"Family Licensed",-111.96067,40.639839,"6128 hazelhurst dr, taylorsville, ut 84129, usa"
"127","Little Turtles Daycare","4661 South Sunstone Rd, Taylorsville, Utah",84123,"Residential Certified",-111.9086772,40.6685889,"4661 sunstone rd, taylorsville, ut 84123, usa"
"128","Family Licensed","1050 West 500 North, Salt Lake City, Utah",84116,"Family Licensed",-111.9215,40.7805057,"1050 w 500 n, salt lake city, ut 84116, usa"
"129","Central City Teen Program","210 E 600 S, Salt Lake City, Utah",84111,"Registered Teen Program",-111.8850304,40.7563065,"210 e 600 s, salt lake city, ut 84111, usa"
"130","Glendale Library Teen Program","210 E 600 S, Salt Lake City, Utah",84111,"Registered Teen Program",-111.8850304,40.7563065,"210 e 600 s, salt lake city, ut 84111, usa"
"131","Northwest Teen Program","210 E 600 S, Salt Lake City, Utah",84111,"Exempt Afterschool Program",-111.8850304,40.7563065,"210 e 600 s, salt lake city, ut 84111, usa"
"132","Canyons 21st Century Community Learning Center - Copperview Elementary School","8449 S Monroe, Midvale, Utah",84047,"Exempt Afterschool Program",-111.8950187,40.5976842,"8449 s monroe st, midvale, ut 84047, usa"
"133","Eastside Preschool","1650 East 3300 South, Salt Lake City, Utah",84106,"Center Licensed",-111.844353,40.699629,"1650 e 3300 s, salt lake city, ut 84106, usa"
"134","Family, Friends & Neighbor","1466 Sandpiper Way, Salt Lake City, Utah",84117,"Family, Friends & Neighbor",-111.849901,40.6575753,"1466 sandpiper way, holladay, ut 84117, usa"
"135","Kairos Academy","1325 W 2200 S Ste A, West Valley City, Utah",84119,"Center Licensed",-111.9302265,40.7233274,"1325 w 2200 s a, west valley city, ut 84119, usa"
"136","St. John's Community Child Development Center Murray","240 E 5600 S, Murray, Utah",84107,"Center Licensed",-111.884736,40.64852,"240 e 5600 s, murray, ut 84107, usa"
"137","The Montessori Way","3018 Collie Drive, West Valley City, Utah",84128,"Family Licensed",-112.056391,40.7054479,"3018 collie dr, west valley city, ut 84128, usa"
"138","Family, Friends & Neighbor","2900 W 4570 S, West Valley City, Utah",84119,"Family, Friends & Neighbor",-111.9619311,40.6709686,"2900 w 4570 s, west valley city, ut 84119, usa"
"139","Victoria's Daycare","4014 West Sun Dr, Kearns, Utah",84118,"Family Licensed",-111.9868046,40.6427013,"4014 sun dr, kearns, ut 84118, usa"
"140","Family, Friends & Neighbor","747 W Twin River Way, Salt Lake City, Utah",84123,"Family, Friends & Neighbor",-111.9136178,40.6793262,"747 w twin river way, salt lake city, ut 84123, usa"
"141","Gigi's Learn","10752 Fern Ridge Drive, South Jordan, Utah",84009,"Family Licensed",-111.9898172,40.5559183,"10752 fern ridge dr, south jordan, ut 84095, usa"
"142","Family Licensed","2320 W 4805 S, Taylorsville, Utah",84129,"Family Licensed",-111.950679,40.66549,"2320 w 4805 s, taylorsville, ut 84129, usa"
"143","Neighborhood House Association","1050 West 500 South, Salt Lake City, Utah",84104,"Center Licensed",-111.9218707,40.7598625,"1050 w 500 s, salt lake city, ut 84104, usa"
"144","Katia's Day Care","8805 S 2700 W, West Jordan, Utah",84088,"Family Licensed",-111.957482,40.5913341,"8805 2700 w, west jordan, ut 84088, usa"
"145","Narda's Place","1928 East 2100 South, South Salt Lake City, Utah",84106,"Family Licensed",-111.8360929,40.7252603,"1928 e 2100 s, salt lake city, ut 84106, usa"
"146","Family, Friends & Neighbor","1516 Concord St., Salt Lake City, Utah",84104,"Family, Friends & Neighbor",-111.9270911,40.7364821,"1516 concord st, salt lake city, ut 84104, usa"
"147","St. John The Baptist Elementary School","300 E 11800 S, Draper, Utah",84020,"Exempt Afterschool Program",-111.8821236,40.5360539,"300 11800 s, draper, ut 84020, usa"
"148","Family Licensed","3334 South Forsythia Drive, West Valley City, Utah",84119,"Family Licensed",-111.972545,40.699445,"3334 forsythia dr, west valley city, ut 84119, usa"
"149","Lyn's Smart and Fun Childcare","11882 S Aztec Rd, Draper, Utah",84020,"Family Licensed",-111.8993738,40.5354134,"11882 aztec rd, draper, ut 84020, usa"
"150","Family Licensed","5472 W Vista Ridge Way, Kearns, Utah",84118,"Family Licensed",-112.021583,40.648671,"5472 vista ridge way, kearns, ut 84118, usa"
"151","Cowley Daycare","3911 South Brina Lane, Magna, Utah",84044,"Family Licensed",-112.0675656,40.6865041,"3911 brina ln, magna, ut 84044, usa"
"152","Youth City - Fairmont Park","210 E 600 S, Salt Lake City, Utah",84111,"Exempt Afterschool Program - DWS Approved",-111.8850304,40.7563065,"210 e 600 s, salt lake city, ut 84111, usa"
"153","Family Licensed","13228 South 330 West, Draper, Utah",84020,"Family Licensed",-111.9006882,40.5111077,"13228 s 330 w, draper, ut 84020, usa"
"154","Utah Community Action Head Start - South Kearns","1307 S 900 W, Salt Lake City, Utah",84104,"Exempt Center",-111.9166561,40.7412981,"1307 s 900 w, salt lake city, ut 84104, usa"
"155","Utah Community Action Head Start- Monroe","1307 S 900 W, Salt Lake City, Utah",84104,"Exempt Center",-111.9166561,40.7412981,"1307 s 900 w, salt lake city, ut 84104, usa"
"156","Utah Community Action Head Start - Majestic","1307 S 900 W, Salt Lake City, Utah",84104,"Exempt Center",-111.9166561,40.7412981,"1307 s 900 w, salt lake city, ut 84104, usa"
"157","Utah Community Action Head Start - Copperview Community Center Blue, Yellow, Green","1307 S 900 W, Salt Lake City, Utah",84104,"Exempt Center",-111.9166561,40.7412981,"1307 s 900 w, salt lake city, ut 84104, usa"
"158","Cuenca's Learn and Grow Preschool","7927 Linton Drive, West Jordan, Utah",84088,"Family Licensed",-111.963668,40.607477,"7927 linton dr, west jordan, ut 84088, usa"
"159","McGillis Elementray","668 S 1300 E, Salt Lake City, Utah",84102,"Exempt Afterschool Program",-111.8548247,40.7547644,"668 s 1300 e, salt lake city, ut 84102, usa"
"160","Creek Road Childcare (Saint Thomas More Catholic Church)","3015 E. Creek Rd, Sandy, Utah",84093,"Center Licensed",-111.8079663,40.60461,"3015 creek rd, sandy, ut 84093, usa"
"161","Family Licensed","PO Box 901963, Sandy, Utah",84090,"Family Licensed",-111.8389726,40.5649781,"sandy, ut, usa"
"162","Granger Elementary After School Program/Community Education Partnership of WVC","3700 S 1950 W, West Valley City, Utah",84119,"Exempt Afterschool Program - DWS Approved",-111.9437331,40.6923289,"3700 s 1950 w, west valley city, ut 84119, usa"
"163","Granger Elementary School","3702 South 1950 West, West Valley City, Utah",84119,"Exempt Afterschool Program",-111.944863,40.692123,"3702 s 1950 w, west valley city, ut 84119, usa"
"164","Midvale Boys & Girls Club Youth Program","P.O. Box 57071, Murray, Utah",84157,"Exempt Afterschool Program - DWS Approved",-111.8879909,40.6668916,"murray, ut, usa"
"165","Smart Kids 3","6990 South 1300 West, West Jordan, Utah",84084,"Center Licensed",-111.9296344,40.6244616,"6990 1300 w, west jordan, ut 84084, usa"
"166","Residential Certified","3493 West El Cabrio Drive, West Valley City, Utah",84119,"Residential Certified",-111.974468,40.705884,"3493 el cabrio dr, west valley city, ut 84119, usa"
"167","Family Licensed","1398 West Mason Hollow Drive, Riverton, Utah",84065,"Family Licensed",-111.931344,40.5305139,"1398 mason hollow dr, riverton, ut 84065, usa"
"168","Family, Friends & Neighbor","1238 Oros Ave, Salt Lake City, Utah",84124,"Family, Friends & Neighbor",-111.855871,40.684772,"1238 oros ave s, millcreek, ut 84124, usa"
"169","Family, Friends & Neighbor","1864 Independence Blvd, Salt Lake City, Utah",84116,"Family, Friends & Neighbor",-111.944553,40.8019842,"1864 independence blvd n, salt lake city, ut 84116, usa"
"170","Family, Friends & Neighbor","8476 S Fayeway Drive, Sandy, Utah",84094,"Family, Friends & Neighbor",-111.8571088,40.5974001,"8476 s fayeway dr, sandy, ut 84094, usa"
"171","Under the C","6439 S Clernates Dr., West Jordan, Utah",84081,"Family Licensed",-112.0174721,40.6344022,"6439 clernates dr, west jordan, ut 84081, usa"
"172","Family, Friends & Neighbor","13200 S 300 E, Draper, Utah",84020,"Family, Friends & Neighbor",-111.8821254,40.5119585,"13200 s 300 e, draper, ut 84020, usa"
"173","Family Licensed","9053 South Wisteria Way, West Jordan, Utah",84088,"Family Licensed",-112.0165581,40.5870155,"9053 wisteria way, west jordan, ut 84081, usa"
"174","Lotsa Tots II","4038 West 11800 South, South Jordan, Utah",84095,"Center Licensed",-111.9872281,40.5374493,"4038 11800 s, south jordan, ut 84095, usa"
"175","Lotsa Tots Child Care Center","10447 South 1585 West, South Jordan, Utah",84095,"Center Licensed",-111.9359011,40.57844,"10447 shellywood cir, south jordan, ut 84095, usa"
"176","Canyons 21st Century Community Learning Center - Midvale Elementary School","7830 Chapel St, Midvale, Utah",84047,"Exempt Afterschool Program",-111.9019552,40.6081112,"7830 chapel st, midvale, ut 84047, usa"
"177","Discovery Place Preschool","2375 E 3300 S, Salt Lake City, Utah",84109,"Exempt Center",-111.8227602,40.6999454,"2375e e 3300 s, salt lake city, ut 84109, usa"
"178","LifeTime Fitness School Age Program","10996 South River Front Parkway, South Jordan, Utah",84095,"Licensed Afterschool Program",-111.9186246,40.5518464,"10996 s river front pkwy, south jordan, ut 84095, usa"
"179","Family Licensed","5935 West Copper City Circle, Kearns, Utah",84118,"Family Licensed",-112.032691,40.650297,"5935 w copper city cir, kearns, ut 84118, usa"
"180","Precious Cargo Kids","5520 West Aristada Avenue, West Jordan, Utah",84081,"Family Licensed",-112.0226278,40.6282391,"5520 aristada ave, west jordan, ut 84081, usa"
"181","St Paul's Preschool & Childcare","261 South 900 East, Salt Lake City, Utah",84102,"Center Licensed",-111.865348,40.763382,"261 south 900 east, salt lake city, ut 84102, usa"
"182","Bright Horizons at Overstock.com","779 West Colesium Way, Midvale, Utah",84047,"Center Licensed",-111.9132884,40.6187279,"coliseum way, midvale, ut 84047, usa"
"183","Family Licensed","1263 West Jordan River Dr., South Jordan, Utah",84095,"Family Licensed",-111.9280368,40.5504042,"1263 w jordan river dr, south jordan, ut 84095, usa"
"184","Boys and Girls Club of GSL Sugarhouse","968 East Sugarmont Drive, Salt Lake City, Utah",84106,"Center Licensed",-111.8634054,40.7223679,"968 sugarmont dr, salt lake city, ut 84106, usa"
"185","Bingham High School Childcare","2106 W 10400 S, South Jordan, Utah",84095,"Exempt Center - Schoolbased",-111.9444467,40.5622844,"2106 s jordan pkwy, south jordan, ut 84095, usa"
"186","Glitter Child Care","2941 S. Losser Drive, West Valley City, Utah",84119,"Family Licensed",-111.970871,40.706804,"2941 losser dr, west valley city, ut 84119, usa"
"187","Kid Care Company","475 South Redwood Road, Salt Lake City, Utah",84104,"Center Licensed",-111.9382797,40.7590846,"475 s redwood rd, salt lake city, ut 84104, usa"
"188","Buttons n' Bows I","2600 East 3900 South, Salt Lake City, Utah",84124,"Center Licensed",-111.817525,40.6870729,"2600 3900 s, salt lake city, ut 84124, usa"
"189","Family Licensed","915 East LaCasa Circle, Sandy, Utah",84094,"Family Licensed",-111.865272,40.5539041,"915 e 10885 s, sandy, ut 84094, usa"
"190","Copper Hills High School Pre-School Lab","5445 W New Bingham Highway, West Jordan, Utah",84084,"Exempt Center - Schoolbased",-112.0186508,40.5942246,"5445 new bingham hwy, west jordan, ut 84081, usa"
"191","Family Licensed","4298 W. 5655 S., Kearns, Utah",84118,"Family Licensed",-111.993965,40.648635,"4298 w 5655 s, kearns, ut 84118, usa"
"192","Tender Touch Inc. (Midvale)","PO Box 865, Midvale, Utah",84047,"Center Licensed",-111.8999353,40.6110589,"midvale, ut, usa"
"193","YMCA - Eisenhower After School Program","4223 S Atherton Dr, Taylorsville, Utah",84123,"Exempt Afterschool Program - DWS Approved",-111.9353391,40.6783658,"4223 south atherton drive, taylorsville, ut 84123, usa"
"194","YMCA Heber Day Camp","4223 S Atherton Dr, Taylorsville, Utah",84123,"Exempt Afterschool Program - DWS Approved",-111.9353391,40.6783658,"4223 south atherton drive, taylorsville, ut 84123, usa"
"195","YMCA - Plymouth After School Program","4223 S Atherton Dr, Taylorsville, Utah",84123,"Exempt Afterschool Program - DWS Approved",-111.9353391,40.6783658,"4223 south atherton drive, taylorsville, ut 84123, usa"
"196","Hunter Jr. High","6131 West 3785 South, West Valley City, Utah",84120,"Exempt Afterschool Program",-112.0373835,40.689672,"6131 w 3785 s, west valley city, ut 84128, usa"
"197","YMCA- Fox Hills After School Program","4223 S Atherton Dr, Taylorsville, Utah",84123,"Exempt Afterschool Program - DWS Approved",-111.9353391,40.6783658,"4223 south atherton drive, taylorsville, ut 84123, usa"
"198","YMCA - Vista Elementary Tutoring Program","4223 S Atherton Dr, Taylorsville, Utah",84123,"Exempt Afterschool Program",-111.9353391,40.6783658,"4223 south atherton drive, taylorsville, ut 84123, usa"
"199","YMCA Community Family Center - Taylorsville","4223 South Atherton Dr, Taylorsville, Utah",84123,"Center Licensed",-111.9353391,40.6783658,"4223 south atherton drive, taylorsville, ut 84123, usa"
"200","YMCA - Redwood After School Program","4223 S Atherton Dr, Taylorsville, Utah",84123,"Exempt Afterschool Program - DWS Approved",-111.9353391,40.6783658,"4223 south atherton drive, taylorsville, ut 84123, usa"
"201","Residential Certified","153 Emberly Lane, Murray, Utah",84107,"Residential Certified",-111.8864738,40.6511502,"153 emberly ln, murray, ut 84107, usa"
"202","Residential Certified","3115 Marseilles Way, West Valley City, Utah",84119,"Residential Certified",-111.93496,40.702697,"3115 marseilles way, west valley city, ut 84119, usa"
"203","Family Licensed","621 S 1200 W, Salt Lake City, Utah",84104,"Family Licensed",-111.9259168,40.7557276,"621 s 1200 w, salt lake city, ut 84104, usa"
"204","Bright Kids","526 North Irie Lane, Salt Lake City, Utah",84116,"Family Licensed",-111.9398057,40.780864,"526 n irie ln, salt lake city, ut 84116, usa"
"205","Sandra Faber Daycare","3164 Summer Street, West Jordan, Utah",84084,"Family Licensed",-111.965678,40.6132129,"3164 w summer st, west jordan, ut 84084, usa"
"206","Jack & Jill Daycare/Preschool","9641 South 700 East, Sandy, Utah",84070,"Center Licensed",-111.87161,40.576309,"9641 700 e, sandy, ut 84070, usa"
"207","Residential Certified","3472 S Hedon Place, West Valley City, Utah",84119,"Residential Certified",NA,NA,"3270 s 8400 w, magna, ut 84044, usa"
"208","Family, Friends & Neighbor","558 N. Redwood Rd., Salt Lake City, Utah",84116,"Family, Friends & Neighbor",-112.0924399,40.6999283,"3270 s 8400 w, magna, ut 84044, usa"
"209","Family, Friends & Neighbor","3777 S Pavant Dr, West Valley City, Utah",84120,"Family, Friends & Neighbor",-112.0924399,40.6999283,"3270 s 8400 w, magna, ut 84044, usa"
"210","Kearns Library","4220 West 5350 South, Kearns, Utah",84118,"Exempt Center",-112.0924399,40.6999283,"3270 s 8400 w, magna, ut 84044, usa"
"211","Bernice's Daycare","566 East Howard Drive, Sandy, Utah",84070,"Family Licensed",-112.0924399,40.6999283,"3270 s 8400 w, magna, ut 84044, usa"
"212","Family, Friends & Neighbor","76 W Draney, Taylorsville, Utah",84123,"Family, Friends & Neighbor",-112.0924399,40.6999283,"3270 s 8400 w, magna, ut 84044, usa"
"213","Kiddie Place Daycare","10055 S Blossom Drive, Sandy, Utah",84070,"Family Licensed",-112.0924399,40.6999283,"3270 s 8400 w, magna, ut 84044, usa"
"214","SLCAP Head Start - Horizonte Head Start","1234 South Main Street, Salt Lake City, Utah",84101,"Center Licensed",-112.0924399,40.6999283,"3270 s 8400 w, magna, ut 84044, usa"
"215","YouthWorks","622 West 500 North, Salt Lake City, Utah",84116,"Exempt Afterschool Program",-112.0924399,40.6999283,"3270 s 8400 w, magna, ut 84044, usa"
"216","Family Licensed","3737 South 8035 West, Magna, Utah",84044,"Family Licensed",-112.0924399,40.6999283,"3270 s 8400 w, magna, ut 84044, usa"
"217","Pacific Heritage Academy","1755 W 1100 N, Salt Lake City, Utah",84116,"Exempt Afterschool Program",-112.0924399,40.6999283,"3270 s 8400 w, magna, ut 84044, usa"
"218","Family, Friends & Neighbor","807 E Vine St, Murray, Utah",84107,"Family, Friends & Neighbor",-112.0924399,40.6999283,"3270 s 8400 w, magna, ut 84044, usa"
"219","Family, Friends & Neighbor","13528 S Venicia Way, Draper, Utah",84020,"Family, Friends & Neighbor",-112.0924399,40.6999283,"3270 s 8400 w, magna, ut 84044, usa"
"220","Mother's Helper Child Care - Sandy","7890 Siesta Dr., Sandy, Utah",84093,"Center Licensed",-112.0924399,40.6999283,"3270 s 8400 w, magna, ut 84044, usa"
"221","Mother's Helper Child Care-South Jordan","9538 South Redwood Road, South Jordan, Utah",84095,"Center Licensed",-112.0924399,40.6999283,"3270 s 8400 w, magna, ut 84044, usa"
"222","Murray Boys & Girls Club Youth Program","PO Box 57071, Murray, Utah",84157,"Exempt Afterschool Program - DWS Approved",-112.0924399,40.6999283,"3270 s 8400 w, magna, ut 84044, usa"
"223","Midas Creek Preschool","4502 W Spring Park Cir., Riverton, Utah",84096,"Exempt In Home",-112.0924399,40.6999283,"3270 s 8400 w, magna, ut 84044, usa"
"224","Family Licensed","3275 South 4300 West, West Valley City, Utah",84120,"Family Licensed",-112.0924399,40.6999283,"3270 s 8400 w, magna, ut 84044, usa"
"225","Young Scholars Academy","PO Box 853, Draper, Utah",84020,"Center Licensed",-112.0924399,40.6999283,"3270 s 8400 w, magna, ut 84044, usa"
"226","University of Utah Club U","1901 E South Campus Dr, Salt Lake City, Utah",84112,"Exempt Afterschool Program",-112.0924399,40.6999283,"3270 s 8400 w, magna, ut 84044, usa"
"227","Sunnyvale Neighborhood Center Elementary After School Program","585 W 3900 S, Salt Lake City, Utah",84123,"Exempt Afterschool Program - DWS Approved",-112.0924399,40.6999283,"3270 s 8400 w, magna, ut 84044, usa"
"228","Sunnyvale Neighborhood Center","595 W 3900 S, Murray, Utah",84123,"Exempt Afterschool Program",-112.0924399,40.6999283,"3270 s 8400 w, magna, ut 84044, usa"
"229","Evergreen Jr High ACE Afterschool Program","155 S 300 W, Salt Lake City, Utah",84101,"Registered Teen Program",-112.0924399,40.6999283,"3270 s 8400 w, magna, ut 84044, usa"
"230","Northwest Middle School ACE Afterschool Program","155 S 300 W, Salt Lake City, Utah",84101,"Registered Teen Program",-112.0924399,40.6999283,"3270 s 8400 w, magna, ut 84044, usa"
"231","Olympus High School ACE Afterschool Program","155 S 300 W, Salt Lake City, Utah",84101,"Registered Teen Program",-112.0924399,40.6999283,"3270 s 8400 w, magna, ut 84044, usa"
"232","Family, Friends & Neighbor","3940 W Kilt St, South Jordan, Utah",84009,"Family, Friends & Neighbor",-112.0924399,40.6999283,"3270 s 8400 w, magna, ut 84044, usa"
"233","Family, Friends & Neighbor","PO BOX 1631, Salt Lake City, Utah",84110,"Family, Friends & Neighbor",-112.0924399,40.6999283,"3270 s 8400 w, magna, ut 84044, usa"
"234","B' Awesome Childcare","2966 Lehi Dr, West Valley City, Utah",84119,"Family Licensed",-112.0924399,40.6999283,"3270 s 8400 w, magna, ut 84044, usa"
"235","CAC - Children's Service Society","655 East 4500 South, Suite 200, Salt Lake City, Utah",84107,"Other Facility",-112.0924399,40.6999283,"3270 s 8400 w, magna, ut 84044, usa"
"236","The Tim and Brenda Huval Child Care Center","1575 S State Street N190, Salt Lake City, Utah",84115,"Center Licensed",-112.0924399,40.6999283,"3270 s 8400 w, magna, ut 84044, usa"
"237","Miss Norma's Child Care","3991 South 3250 West, West Valley City, Utah",84119,"Family Licensed",-112.0924399,40.6999283,"3270 s 8400 w, magna, ut 84044, usa"
"238","Family, Friends & Neighbor","116 E Garden Ave, Salt Lake City, Utah",84115,"Family, Friends & Neighbor",-112.0924399,40.6999283,"3270 s 8400 w, magna, ut 84044, usa"
"239","Family Licensed","8671 South 1365 West, West Jordan, Utah",84088,"Family Licensed",-112.0924399,40.6999283,"3270 s 8400 w, magna, ut 84044, usa"
"240","Mother's Helper Child Care-Fort Union","2138 East 7000 South, Salt Lake City, Utah",84121,"Center Licensed",-112.0924399,40.6999283,"3270 s 8400 w, magna, ut 84044, usa"
"241","Doodle Bug Preschool/Daycare","11752 Casper Road, Sandy, Utah",84092,"Family Licensed",-112.0924399,40.6999283,"3270 s 8400 w, magna, ut 84044, usa"
"242","Promise South Salt Lake","3600 S 700 W, Salt Lake City, Utah",84119,"Exempt Afterschool Program",-112.0924399,40.6999283,"3270 s 8400 w, magna, ut 84044, usa"
"243","Promise South Salt Lake - Meadowbrook STEM Center","220 E. Morris Ave, Salt Lake City, Utah",84115,"Exempt Afterschool Program - DWS Approved",-112.0924399,40.6999283,"3270 s 8400 w, magna, ut 84044, usa"
"244","Family Licensed","10703 South 540 East, Sandy, Utah",84070,"Family Licensed",-112.0924399,40.6999283,"3270 s 8400 w, magna, ut 84044, usa"
"245","La Petite Academy - Alta Canyon","2105 East Alta Canyon Dr., Sandy, Utah",84093,"Center Licensed",-112.0924399,40.6999283,"3270 s 8400 w, magna, ut 84044, usa"
"246","Kearns Oquirrh Park Fitness Center Kids Club","5624 South 4800 West, Kearns, Utah",84118,"Exempt Afterschool Program",-112.0924399,40.6999283,"3270 s 8400 w, magna, ut 84044, usa"
"247","Family Licensed","4770 South 3040 West, Taylorsville, Utah",84129,"Family Licensed",-112.0924399,40.6999283,"3270 s 8400 w, magna, ut 84044, usa"
"248","Just 4 Kids Adventures, Inc.","13279 S 2700 W, Riverton, Utah",84065,"Center Licensed",-112.0924399,40.6999283,"3270 s 8400 w, magna, ut 84044, usa"
"249","Lit'l Scholars Learning Center Taylorsville Inc.","4732 South 1950 West, Salt Lake City, Utah",84118,"Center Licensed",-112.0924399,40.6999283,"3270 s 8400 w, magna, ut 84044, usa"
"250","Family, Friends & Neighbor","1781 West Norman Drive, West Valley City, Utah",84119,"Family, Friends & Neighbor",-112.0924399,40.6999283,"3270 s 8400 w, magna, ut 84044, usa"
"251","My Lil' Angels Home Daycare","4453 Bluff Ridge Drive, West Valley City, Utah",84128,"Family Licensed",-112.0924399,40.6999283,"3270 s 8400 w, magna, ut 84044, usa"
"252","Forever Children","494 East 2700 South, Salt Lake City, Utah",84115,"Center Licensed",-112.0924399,40.6999283,"3270 s 8400 w, magna, ut 84044, usa"
"253","Willowcreek Children's Center","2309 East 9400 South, Sandy, Utah",84093,"Center Licensed",-112.0924399,40.6999283,"3270 s 8400 w, magna, ut 84044, usa"
"254","St. Vincent Depaul School","1385 E Spring Lane, Salt Lake City, Utah",84117,"Exempt Afterschool Program",-112.0924399,40.6999283,"3270 s 8400 w, magna, ut 84044, usa"
"255","Family, Friends & Neighbor","2020 E 7205 S, Cottonwood Heights, Utah",84121,"Family, Friends & Neighbor",-112.0924399,40.6999283,"3270 s 8400 w, magna, ut 84044, usa"
"256","YWCA of Salt Lake City","322 East 300 South, Salt Lake City, Utah",84111,"Exempt Afterschool Program",-112.0924399,40.6999283,"3270 s 8400 w, magna, ut 84044, usa"
"257","Family Licensed","4709 W Delta Park Circle, West Valley City, Utah",84120,"Family Licensed",-112.0924399,40.6999283,"3270 s 8400 w, magna, ut 84044, usa"
"258","Residential Certified","10744 South 895 East, Sandy, Utah",84094,"Residential Certified",-112.0924399,40.6999283,"3270 s 8400 w, magna, ut 84044, usa"
"259","Tender Touch","2612 West Adobe Circle, Taylorsville, Utah",84129,"Family Licensed",-112.0924399,40.6999283,"3270 s 8400 w, magna, ut 84044, usa"
"260","C Street Child Development Center","12 C Street, Salt Lake City, Utah",84103,"Center Licensed",-112.0924399,40.6999283,"3270 s 8400 w, magna, ut 84044, usa"
"261","Family, Friends & Neighbor","11251 S State St, Sandy, Utah",84070,"Family, Friends & Neighbor",-112.0924399,40.6999283,"3270 s 8400 w, magna, ut 84044, usa"
"262","Family Licensed","2771 South Breeze Drive, Magna, Utah",84044,"Family Licensed",-112.0924399,40.6999283,"3270 s 8400 w, magna, ut 84044, usa"
"263","Family Licensed","3812 Edgewater Circle, West Valley City, Utah",84120,"Family Licensed",-112.0924399,40.6999283,"3270 s 8400 w, magna, ut 84044, usa"
"264","Aisha Daycare","3725 Valley Pointe Court, West Valley City, Utah",84128,"Family Licensed",-112.0924399,40.6999283,"3270 s 8400 w, magna, ut 84044, usa"
"265","Expressions Learning Center","8627 South Redwood Road, West Jordan, Utah",84088,"Center Licensed",-112.0924399,40.6999283,"3270 s 8400 w, magna, ut 84044, usa"
"266","Over the Rainbow-Riverton","1830 West 12600 South, Riverton, Utah",84065,"Center Licensed",-112.0924399,40.6999283,"3270 s 8400 w, magna, ut 84044, usa"
"267","Alta High Preschool","11055 S 1000 E, Sandy, Utah",84094,"Exempt Center - Schoolbased",-112.0924399,40.6999283,"3270 s 8400 w, magna, ut 84044, usa"
"268","Mother's Helper Child Care- Cottonwood","5875 South 1300 East, Salt Lake City, Utah",84121,"Center Licensed",-112.0924399,40.6999283,"3270 s 8400 w, magna, ut 84044, usa"
"269","Family, Friends & Neighbor","6890 S Virginia Hills Dr, Cottonwood Heights, Utah",84121,"Family, Friends & Neighbor",-112.0924399,40.6999283,"3270 s 8400 w, magna, ut 84044, usa"
"270","Caring for Kids, Inc","500 Chipeta Way, Salt Lake City, Utah",84108,"Center Licensed",-112.0924399,40.6999283,"3270 s 8400 w, magna, ut 84044, usa"
"271","Brighton High School Bengal Paw Preschool","2220 E 7600 S, Cottonwood Heights, Utah",84121,"Exempt Center - Schoolbased",-112.0924399,40.6999283,"3270 s 8400 w, magna, ut 84044, usa"
"272","Family, Friends & Neighbor","4229 W 5855 S, Kearns, Utah",84118,"Family, Friends & Neighbor",-112.0924399,40.6999283,"3270 s 8400 w, magna, ut 84044, usa"
"273","Family Licensed","228 East 9000 South, Sandy, Utah",84070,"Family Licensed",-112.0924399,40.6999283,"3270 s 8400 w, magna, ut 84044, usa"
"274","Kidzone","202 E. Murray Park Avenue, Murray, Utah",84107,"Hourly Center Licensed",-112.0924399,40.6999283,"3270 s 8400 w, magna, ut 84044, usa"
"275","Family Licensed","11306 South Sandy Creek Drive, Sandy, Utah",84094,"Family Licensed",-112.0924399,40.6999283,"3270 s 8400 w, magna, ut 84044, usa"
"276","Stansbury Elementary School","3050 South 2700 West, West Valley City, Utah",84119,"Exempt Afterschool Program",-112.0924399,40.6999283,"3270 s 8400 w, magna, ut 84044, usa"
"277","Madina Masjid Youth Program","1773 W North Temple, Salt Lake City, Utah",84116,"Exempt Afterschool Program",-112.0924399,40.6999283,"3270 s 8400 w, magna, ut 84044, usa"
"278","Little Leopards Preschool at East High","840 S 1300 E, Salt Lake City, Utah",84102,"Exempt Center - Schoolbased",-112.0924399,40.6999283,"3270 s 8400 w, magna, ut 84044, usa"
"279","Family, Friends & Neighbor","4311 W 5100 S, Kearns, Utah",84118,"Family, Friends & Neighbor",-112.0924399,40.6999283,"3270 s 8400 w, magna, ut 84044, usa"
"280","The Playhouse Childcare","1593 W Manzanita Dr, Taylorsville, Utah",84123,"Center Licensed",-112.0924399,40.6999283,"3270 s 8400 w, magna, ut 84044, usa"
"281","Family Licensed","968 East Sunburn Lane, Sandy, Utah",84094,"Family Licensed",-112.0924399,40.6999283,"3270 s 8400 w, magna, ut 84044, usa"
"282","Mt Olympus Christian Child Development","3280 East 3900 South, Salt Lake City, Utah",84124,"Center Licensed",-112.0924399,40.6999283,"3270 s 8400 w, magna, ut 84044, usa"
"283","Riverton High School Childcare","12476 S 2700 W, Riverton, Utah",84065,"Exempt Center - Schoolbased",-112.0924399,40.6999283,"3270 s 8400 w, magna, ut 84044, usa"
"284","AJ's Treehouse","7711 South 700 East, Sandy, Utah",84047,"Hourly Center Licensed",-112.0924399,40.6999283,"3270 s 8400 w, magna, ut 84044, usa"
"285","Happy Apples Daycare","4545 W 4835 S, Kearns, Utah",84118,"Family Licensed",-112.0924399,40.6999283,"3270 s 8400 w, magna, ut 84044, usa"
"286","Boys & Girls Club of South Valley- Murray Teen Center","244 East Myrtle Avenue, Murray, Utah",84107,"Exempt Afterschool Program",-112.0924399,40.6999283,"3270 s 8400 w, magna, ut 84044, usa"
"287","Makiko's Daycare Center","11930 South Redwood Rd, Riverton, Utah",84065,"Center Licensed",-112.0924399,40.6999283,"3270 s 8400 w, magna, ut 84044, usa"
"288","Makiko's Daycare","730 East 4500 South, Murray, Utah",84107,"Center Licensed",-112.0924399,40.6999283,"3270 s 8400 w, magna, ut 84044, usa"
"289","Little Angels Child Care","8914 South Midvalley Drive, West Jordan, Utah",84088,"Family Licensed",-112.0924399,40.6999283,"3270 s 8400 w, magna, ut 84044, usa"
"290","The Children's Cottage","4615 South Highland Drive, Holladay, Utah",84117,"Center Licensed",-112.0924399,40.6999283,"3270 s 8400 w, magna, ut 84044, usa"
"291","Family, Friends & Neighbor","9300 South Redwood Road, West Jordan, Utah",84088,"Family, Friends & Neighbor",-112.0924399,40.6999283,"3270 s 8400 w, magna, ut 84044, usa"
"292","Family Licensed","13542 Heather Daisy Drive, Herriman, Utah",84096,"Family Licensed",-112.0924399,40.6999283,"3270 s 8400 w, magna, ut 84044, usa"
"293","Carden Memorial School","1452 East 2700 South, Salt Lake City, Utah",84106,"Exempt Afterschool Program",-112.0924399,40.6999283,"3270 s 8400 w, magna, ut 84044, usa"
"294","Family Licensed","9533 South 300 East, Sandy, Utah",84070,"Family Licensed",-112.0924399,40.6999283,"3270 s 8400 w, magna, ut 84044, usa"
"295","Utah Community Action Head Start - U of U (NBS)","1307 S 900 W, Salt Lake City, Utah",84104,"Exempt Center",-112.0924399,40.6999283,"3270 s 8400 w, magna, ut 84044, usa"
"296","ABC Great Beginnings -  West Jordan","8897 S 2070 W, West Jordan, Utah",84088,"Center Licensed",-112.0924399,40.6999283,"3270 s 8400 w, magna, ut 84044, usa"
"297","Alta Canyon Sports Center","9565 South Highland Drive, Sandy, Utah",84092,"Licensed Afterschool Program",-112.0924399,40.6999283,"3270 s 8400 w, magna, ut 84044, usa"
"298","Alta Canyon Sports Hourly Center","9565 South Highland Drive, Sandy, Utah",84092,"Hourly Center Licensed",-112.0924399,40.6999283,"3270 s 8400 w, magna, ut 84044, usa"
"299","Magna Library Afterschool Program","2675 S 8950 W, Magna, Utah",84044,"Exempt Afterschool Program",-112.0924399,40.6999283,"3270 s 8400 w, magna, ut 84044, usa"
"300","Chuckles-n-Cuddles","7648 South 2290 West, West Jordan, Utah",84084,"Family Licensed",-112.0924399,40.6999283,"3270 s 8400 w, magna, ut 84044, usa"
"301","Black Diamond Sports Center","11274 Kestrel Rise Road Ste. A, South Jordan, Utah",84009,"Licensed Afterschool Program",-112.0924399,40.6999283,"3270 s 8400 w, magna, ut 84044, usa"
"302","Corner Canyon High School - Preschool Lab","12943 S 700 E, Draper, Utah",84020,"Exempt Center - Schoolbased",-112.0924399,40.6999283,"3270 s 8400 w, magna, ut 84044, usa"
"303","Somali Bantu Youth Program","3335 S 900 E, Salt Lake City, Utah",84106,"Exempt Afterschool Program",-112.0924399,40.6999283,"3270 s 8400 w, magna, ut 84044, usa"
"304","Family, Friends & Neighbor","532 N. Redwood Rd., Salt Lake City, Utah",84116,"Family, Friends & Neighbor",-112.0924399,40.6999283,"3270 s 8400 w, magna, ut 84044, usa"
"305","Family, Friends & Neighbor","1638 W Secret Garden Place, Salt Lake City, Utah",84104,"Family, Friends & Neighbor",-112.0924399,40.6999283,"3270 s 8400 w, magna, ut 84044, usa"
"306","Family Licensed","1859 West 700 North, Salt Lake City, Utah",84116,"Family Licensed",-112.0924399,40.6999283,"3270 s 8400 w, magna, ut 84044, usa"
"307","Francine Child Care","3727 South 8035 West, Magna, Utah",84044,"Family Licensed",-112.0924399,40.6999283,"3270 s 8400 w, magna, ut 84044, usa"
"308","Family, Friends & Neighbor","7316 South 1370 West, West Jordan, Utah",84084,"Family, Friends & Neighbor",-112.0924399,40.6999283,"3270 s 8400 w, magna, ut 84044, usa"
"309","Second Home Daycare","1427 South Utahna Drive, Salt Lake City, Utah",84104,"Family Licensed",-112.0924399,40.6999283,"3270 s 8400 w, magna, ut 84044, usa"
"310","Family, Friends & Neighbor","3442 S River Dock, West Valley City, Utah",84119,"Family, Friends & Neighbor",-112.0924399,40.6999283,"3270 s 8400 w, magna, ut 84044, usa"
"311","Francoise's Daycare","2988 S. Losser Dr., West Valley City, Utah",84118,"Residential Certified",-112.0924399,40.6999283,"3270 s 8400 w, magna, ut 84044, usa"
"312","Entheos 4-H Afterschool - Magna","4710 W 6200 S, Kearns, Utah",84118,"Exempt Afterschool Program",-112.0924399,40.6999283,"3270 s 8400 w, magna, ut 84044, usa"
"313","Family Licensed","5076 West 6055 South, Kearns, Utah",84118,"Family Licensed",-112.0924399,40.6999283,"3270 s 8400 w, magna, ut 84044, usa"
"314","Residential Certified","3223 S Lehi Dr, West Valley City, Utah",84119,"Residential Certified",-112.0924399,40.6999283,"3270 s 8400 w, magna, ut 84044, usa"
"315","Katie Jenkins' Daycare","2040 West 6245 South, Taylorsville, Utah",84129,"Family Licensed",-112.0924399,40.6999283,"3270 s 8400 w, magna, ut 84044, usa"
"316","Family Licensed","6229 S Fashion Blvd Rear, Murray, Utah",84107,"Family Licensed",-112.0924399,40.6999283,"3270 s 8400 w, magna, ut 84044, usa"
"317","Family Licensed","3401 W 3100 S, West Valley City, Utah",84119,"Family Licensed",-112.0924399,40.6999283,"3270 s 8400 w, magna, ut 84044, usa"
"318","Sadies Daycare","2811 W Haun Dr, West Jordan, Utah",84088,"Family Licensed",-112.0924399,40.6999283,"3270 s 8400 w, magna, ut 84044, usa"
"319","Family Licensed","3719 South Lancashire Circle, West Valley City, Utah",84119,"Family Licensed",-112.0924399,40.6999283,"3270 s 8400 w, magna, ut 84044, usa"
"320","West High Childcare","241 N 300 W, Salt Lake City, Utah",84103,"Exempt Center - Schoolbased",-112.0924399,40.6999283,"3270 s 8400 w, magna, ut 84044, usa"
"321","Angel's Dream Daycare","11613 Grandville Avenue, South Jordan, Utah",84095,"Family Licensed",-112.0924399,40.6999283,"3270 s 8400 w, magna, ut 84044, usa"
"322","Wasatch Presbyterian Preschool","1626 S 1700 E, Salt Lake City, Utah",84108,"Exempt Center",-112.0924399,40.6999283,"3270 s 8400 w, magna, ut 84044, usa"
"323","Herriman High School Child Care Lab","11917 S Mustang Trail Way, Herriman, Utah",84096,"Exempt Center - Schoolbased",-112.0924399,40.6999283,"3270 s 8400 w, magna, ut 84044, usa"
"324","Nataleen Johnson Daycare","1415 Parliament Avenue, West Valley City, Utah",84123,"Family Licensed",-112.0924399,40.6999283,"3270 s 8400 w, magna, ut 84044, usa"
"325","Stacie's Hopes-n-Dreams Childcare",", Magna, Utah",84044,"Family Licensed",-112.0924399,40.6999283,"3270 s 8400 w, magna, ut 84044, usa"
"326","The Children's Center","350 400 E, Salt Lake City, Utah",NA,"Other Facility",-112.0924399,40.6999283,"3270 s 8400 w, magna, ut 84044, usa"
"327","Family Licensed","7999 South 830 East, Sandy, Utah",84094,"Family Licensed",-112.0924399,40.6999283,"3270 s 8400 w, magna, ut 84044, usa"
"328","Carol Jones Daycare","644 S 600 E, Salt Lake City, Utah",84102,"Family Licensed",-112.0924399,40.6999283,"3270 s 8400 w, magna, ut 84044, usa"
"329","Family, Friends & Neighbor","690 E 200 S, Price, Utah",84501,"Family, Friends & Neighbor",-112.0924399,40.6999283,"3270 s 8400 w, magna, ut 84044, usa"
"330","Love 2 Learn","13708 S Manas, Herriman, Utah",84096,"Exempt In Home",-112.0924399,40.6999283,"3270 s 8400 w, magna, ut 84044, usa"
"331","First Steps","1076 Ironwood Road, Erda, Utah",84074,"Center Licensed",-112.0924399,40.6999283,"3270 s 8400 w, magna, ut 84044, usa"
"332","Family Licensed","6570 West Snow Hollow Drive, West Valley City, Utah",84128,"Family Licensed",-112.0924399,40.6999283,"3270 s 8400 w, magna, ut 84044, usa"
"333","Camp Snowbird Hourly Program","P.O. Box 929000, Snowbird, Utah",84092,"Hourly Center Licensed",-112.0924399,40.6999283,"3270 s 8400 w, magna, ut 84044, usa"
"334","Camp Snowbird Out of School Time Program","9320 East Cliff Lodge Road, Snowbird, Utah",84092,"Licensed Afterschool Program",-112.0924399,40.6999283,"3270 s 8400 w, magna, ut 84044, usa"
"335","Lied Boys & Girls Club Youth Program","PO Box 57071, Murray, Utah",84157,"Exempt Afterschool Program",-112.0924399,40.6999283,"3270 s 8400 w, magna, ut 84044, usa"
"336","Residential Certified","2956 S Losser Drive, West Valley City, Utah",84119,"Residential Certified",-112.0924399,40.6999283,"3270 s 8400 w, magna, ut 84044, usa"
"337","Canyons 21st Century Community Learning Center - East Midvale Elementary School","6990 S 300 E, Midvale, Utah",84047,"Exempt Afterschool Program",-112.0924399,40.6999283,"3270 s 8400 w, magna, ut 84044, usa"
"338","Residential Certified","1917 W 4100 S, Taylorsville, Utah",84118,"Residential Certified",-112.0924399,40.6999283,"3270 s 8400 w, magna, ut 84044, usa"
"339","Family Licensed","4128 S Sunny Park Lane, West Valley City, Utah",84119,"Family Licensed",-112.0924399,40.6999283,"3270 s 8400 w, magna, ut 84044, usa"
"340","Family, Friends & Neighbor","4607 Namba Way, Murray, Utah",84107,"Family, Friends & Neighbor",-112.0924399,40.6999283,"3270 s 8400 w, magna, ut 84044, usa"
"341","ASUU Child Care","225 South 1400 East, Salt Lake City, Utah",84112,"Center Licensed",-112.0924399,40.6999283,"3270 s 8400 w, magna, ut 84044, usa"
"342","SLCAP Head Start - Midvalley Elementary School","217 E 7800 S, Midvale, Utah",84047,"Exempt Center",-112.0924399,40.6999283,"3270 s 8400 w, magna, ut 84044, usa"
"343","SLCAP Head Start - JRR","1307 S 900 W, Salt Lake City, Utah",84104,"Exempt Center",-112.0924399,40.6999283,"3270 s 8400 w, magna, ut 84044, usa"
"344","SLCAP Head Start/Early Head Start - Horizonte","1234 South Main Street, Salt Lake City, Utah",84101,"Exempt Center",-112.0924399,40.6999283,"3270 s 8400 w, magna, ut 84044, usa"
"345","SLCAP Head Start- Early Childhood Education Center","1307 South 900 West, Salt Lake City, Utah",84104,"Center Licensed",-112.0924399,40.6999283,"3270 s 8400 w, magna, ut 84044, usa"
"346","Family, Friends & Neighbor","1420 South 900 West, Salt Lake City, Utah",84104,"Family, Friends & Neighbor",-112.0924399,40.6999283,"3270 s 8400 w, magna, ut 84044, usa"
"347","Hunter Library","4740 W 4100 S, West Valley City, Utah",84120,"Exempt Center",-112.0924399,40.6999283,"3270 s 8400 w, magna, ut 84044, usa"
"348","James E. Moss Elementary School","4399 South 500 East, Salt Lake City, Utah",84107,"Exempt Afterschool Program",-112.0924399,40.6999283,"3270 s 8400 w, magna, ut 84044, usa"
"349","Promise South Salt Lake - Kearns Saint Ann","450 E 2100 S, South Salt Lake, Utah",84115,"Exempt Afterschool Program",-112.0924399,40.6999283,"3270 s 8400 w, magna, ut 84044, usa"
"350","Pretty Butterflies","P.O. Box 623, West Jordan, Utah",84084,"Family Licensed",-112.0924399,40.6999283,"3270 s 8400 w, magna, ut 84044, usa"
"351","Alyce's Daycare","2851 West Minuet Ave, West Valley City, Utah",84119,"Family Licensed",-112.0924399,40.6999283,"3270 s 8400 w, magna, ut 84044, usa"
"352","Residential Certified","1575 East 8600 South, Sandy, Utah",84093,"Residential Certified",-112.0924399,40.6999283,"3270 s 8400 w, magna, ut 84044, usa"
"353","Residential Certified","8770 South 1095 West, West Jordan, Utah",84088,"Residential Certified",-112.0924399,40.6999283,"3270 s 8400 w, magna, ut 84044, usa"
"354","Residential Certified","2152 Theresa Cove, West Valley City, Utah",84119,"Residential Certified",-112.0924399,40.6999283,"3270 s 8400 w, magna, ut 84044, usa"
"355","Sproutlets Academy","6259 Clover Creek Ln, West Valley City, Utah",84118,"Family Licensed",-112.0924399,40.6999283,"3270 s 8400 w, magna, ut 84044, usa"
"356","Family Licensed","6293 South Mt. Vista Drive, Taylorsville, Utah",84129,"Family Licensed",-112.0924399,40.6999283,"3270 s 8400 w, magna, ut 84044, usa"
"357","Ameris Academy Inc.","1533 W Dowry Court B, Taylorsville, Utah",84123,"Center Licensed",-112.0924399,40.6999283,"3270 s 8400 w, magna, ut 84044, usa"
"358","Family Licensed","5144 West Park Vista Court, West Valley  City, Utah",84120,"Family Licensed",-112.0924399,40.6999283,"3270 s 8400 w, magna, ut 84044, usa"
"359","Family Licensed","3377 South Park Vista Drive, West Valley City, Utah",84120,"Family Licensed",-112.0924399,40.6999283,"3270 s 8400 w, magna, ut 84044, usa"
"360","Deborah's Daycare","1300 South 1200 West, Salt Lake City, Utah",84104,"Family Licensed",-112.0924399,40.6999283,"3270 s 8400 w, magna, ut 84044, usa"
"361","Family Licensed","8539 S 1275 W, West Jordan, Utah",84088,"Family Licensed",-112.0924399,40.6999283,"3270 s 8400 w, magna, ut 84044, usa"
"362","Holly's Daycare","8390 Susan Way, West Jordan, Utah",84088,"Family Licensed",-112.0924399,40.6999283,"3270 s 8400 w, magna, ut 84044, usa"
"363","Residential Certified","9342 Maison Drive, Sandy, Utah",84093,"Residential Certified",-112.0924399,40.6999283,"3270 s 8400 w, magna, ut 84044, usa"
"364","Family Licensed","4734 S. Hanauer Street, Murray, Utah",84107,"Family Licensed",-112.0924399,40.6999283,"3270 s 8400 w, magna, ut 84044, usa"
"365","Family Licensed","6349 West King Valley Road, West Valley City, Utah",84128,"Family Licensed",-112.0924399,40.6999283,"3270 s 8400 w, magna, ut 84044, usa"
"366","Family Licensed","8224 South Old Bingham Highway, West Jordan, Utah",84088,"Family Licensed",-112.0924399,40.6999283,"3270 s 8400 w, magna, ut 84044, usa"
"367","Family Licensed","8560 South Shulsen Ln., West Jordan, Utah",84088,"Family Licensed",-112.0924399,40.6999283,"3270 s 8400 w, magna, ut 84044, usa"
"368","Promise South Salt Lake - Historic Scott School","3238 South 500 East, Salt Lake City, Utah",84115,"Exempt Afterschool Program - DWS Approved",-112.0924399,40.6999283,"3270 s 8400 w, magna, ut 84044, usa"
"369","Promise South Salt Lake - Moss Elementary","4399 500 E, Salt Lake City, Utah",84107,"Exempt Afterschool Program - DWS Approved",-112.0924399,40.6999283,"3270 s 8400 w, magna, ut 84044, usa"
"370","Aunt Lorretta's Infant/Child-Care","140 East 5600 South, Murray, Utah",84107,"Center Licensed",-112.0924399,40.6999283,"3270 s 8400 w, magna, ut 84044, usa"
"371","Family Licensed","1221 North Sonata Street, Salt Lake City, Utah",84116,"Family Licensed",-112.0924399,40.6999283,"3270 s 8400 w, magna, ut 84044, usa"
"372","Family Licensed","2288 W Williamsburg circle, West Jordan, Utah",84088,"Family Licensed",-112.0924399,40.6999283,"3270 s 8400 w, magna, ut 84044, usa"
"373","Boo Boo's Child Care","2904 W 5245 S, Taylorsville, Utah",84129,"Family Licensed",-112.0924399,40.6999283,"3270 s 8400 w, magna, ut 84044, usa"
"374","Little Inspirations Child Care","5932 West Champlain Way, Herriman, Utah",84096,"Family Licensed",-112.0924399,40.6999283,"3270 s 8400 w, magna, ut 84044, usa"
"375","Family Licensed","5350 West 4100 South, West Valley City, Utah",84120,"Family Licensed",-112.0924399,40.6999283,"3270 s 8400 w, magna, ut 84044, usa"
"376","Kujang Kuteng","4438 S 120 W, Murray, Utah",84107,"Residential Certified",-112.0924399,40.6999283,"3270 s 8400 w, magna, ut 84044, usa"
"377","Master Kwon's World Class","3909 Highland Drive, Holladay, Utah",84124,"Center Licensed",-112.0924399,40.6999283,"3270 s 8400 w, magna, ut 84044, usa"
"378","Millcreek Activity Center","4405 South 1025 East, Salt Lake City, Utah",84124,"Center Licensed",-112.0924399,40.6999283,"3270 s 8400 w, magna, ut 84044, usa"
"379","Family Licensed","675 South 900 East, Salt Lake City, Utah",84102,"Family Licensed",-112.0924399,40.6999283,"3270 s 8400 w, magna, ut 84044, usa"
"380","Copper Hills High School Child Care Lab","5445 W New Bingham Highway, West Jordan, Utah",84088,"Exempt Center",-112.0924399,40.6999283,"3270 s 8400 w, magna, ut 84044, usa"
"381","Kearns Recreation Center","5670 South 4800 West, Kearns, Utah",84118,"Center Licensed",-112.0924399,40.6999283,"3270 s 8400 w, magna, ut 84044, usa"
"382","Family, Friends & Neighbor","6540 S Stanwick  Rd, Cottonwood Heights, Utah",84121,"Family, Friends & Neighbor",-112.0924399,40.6999283,"3270 s 8400 w, magna, ut 84044, usa"
"383","Hannah Larsen Daycare","1312 West Melanie Place Lane, West Jordan, Utah",84088,"Family Licensed",-112.0924399,40.6999283,"3270 s 8400 w, magna, ut 84044, usa"
"384","Little Critters Learning Center","3879 West 7800 South, West Jordan, Utah",84088,"Center Licensed",-112.0924399,40.6999283,"3270 s 8400 w, magna, ut 84044, usa"
"385","Family Licensed","4468 West Losee Drive, West Valley City, Utah",84120,"Family Licensed",-112.0924399,40.6999283,"3270 s 8400 w, magna, ut 84044, usa"
"386","Pleasant Green Elementary Afterschool Program","177 W Price Ave, South Salt Lake City, Utah",84115,"Exempt Afterschool Program - DWS Approved",-112.0924399,40.6999283,"3270 s 8400 w, magna, ut 84044, usa"
"387","Family Licensed","7509 South 2840 West, West Jordan, Utah",84084,"Family Licensed",-112.0924399,40.6999283,"3270 s 8400 w, magna, ut 84044, usa"
"388","Northwest Child Learning Center","1300 West 300 North, Salt Lake City, Utah",84116,"Center Licensed",-112.0924399,40.6999283,"3270 s 8400 w, magna, ut 84044, usa"
"389","Sunny's Side Daycare","13671 Times Court, Herriman, Utah",84096,"Family Licensed",-112.0924399,40.6999283,"3270 s 8400 w, magna, ut 84044, usa"
"390","YWCA Children's Advocacy and Intervention Teen Program","322 East 300 South, Salt Lake City, Utah",84111,"Exempt Afterschool Program",-112.0924399,40.6999283,"3270 s 8400 w, magna, ut 84044, usa"
"391","St. Francis Xavier Catholic School","4501 W 5215 S, Kearns, Utah",84118,"Exempt Afterschool Program",-112.0924399,40.6999283,"3270 s 8400 w, magna, ut 84044, usa"
"392","Family Licensed","249 Thornberry Drive, Draper, Utah",84020,"Family Licensed",-112.0924399,40.6999283,"3270 s 8400 w, magna, ut 84044, usa"
"393","D and K Day Care/Preschool","12082 South Kenmore Circle, Riverton, Utah",84065,"Center Licensed",-112.0924399,40.6999283,"3270 s 8400 w, magna, ut 84044, usa"
"394","Cove Care","4254 Sunset View Drive, Salt Lake City, Utah",84124,"Family Licensed",-112.0924399,40.6999283,"3270 s 8400 w, magna, ut 84044, usa"
"395","Family Licensed","4006 South 4000 West, West Valley City, Utah",84120,"Family Licensed",-112.0924399,40.6999283,"3270 s 8400 w, magna, ut 84044, usa"
"396","Family Licensed","5741 West Boulder Creek Road, West Jordan, Utah",84081,"Family Licensed",-112.0924399,40.6999283,"3270 s 8400 w, magna, ut 84044, usa"
"397","La Petite Academy - Cottonwood","6955 South 2300 East, Salt Lake City, Utah",84121,"Center Licensed",-112.0924399,40.6999283,"3270 s 8400 w, magna, ut 84044, usa"
"398","Creative Learning Academy of Utah","1110 W 3300 S, Salt Lake City, Utah",84119,"Center Licensed",-112.0924399,40.6999283,"3270 s 8400 w, magna, ut 84044, usa"
"399","Family, Friends & Neighbor","3628 Country West Dr, Magna, Utah",84044,"Family, Friends & Neighbor",-112.0924399,40.6999283,"3270 s 8400 w, magna, ut 84044, usa"
"400","Elk Run Elementary School","3550 South Helen Drive, Magna, Utah",84044,"Exempt Afterschool Program - DWS Approved",-112.0924399,40.6999283,"3270 s 8400 w, magna, ut 84044, usa"
"401","Smart Kids II","3868 South 200 East, Salt Lake City, Utah",84115,"Center Licensed",-112.0924399,40.6999283,"3270 s 8400 w, magna, ut 84044, usa"
"402","Family, Friends & Neighbor","733 W Shadow Wood Dr, Murray, Utah",84123,"Family, Friends & Neighbor",-112.0924399,40.6999283,"3270 s 8400 w, magna, ut 84044, usa"
"403","Youth City - Ottinger Hall","233 North Canyon Road, Salt Lake City, Utah",84103,"Exempt Afterschool Program - DWS Approved",-112.0924399,40.6999283,"3270 s 8400 w, magna, ut 84044, usa"
"404","Fairy Godmother's Place","5123 S Huntington Rd, Taylorsville, Utah",84129,"Family Licensed",-112.0924399,40.6999283,"3270 s 8400 w, magna, ut 84044, usa"
"405","Residential Certified","1914 Lincoln Street, Salt Lake City, Utah",84105,"Residential Certified",-112.0924399,40.6999283,"3270 s 8400 w, magna, ut 84044, usa"
"406","Barbara's Day Care","5918 South Main Street, Murray, Utah",84107,"Family Licensed",-112.0924399,40.6999283,"3270 s 8400 w, magna, ut 84044, usa"
"407","Snoopy Day Care","4442 West 6165 South, Kearns, Utah",84118,"Family Licensed",-112.0924399,40.6999283,"3270 s 8400 w, magna, ut 84044, usa"
"408","World of Wonder Day School","1593 Bluemont Circle, Taylorsville, Utah",84123,"Family Licensed",-112.0924399,40.6999283,"3270 s 8400 w, magna, ut 84044, usa"
"409","Miss Billies Kids Kampus","232 West 800 South, Salt Lake City, Utah",84101,"Center Licensed",-112.0924399,40.6999283,"3270 s 8400 w, magna, ut 84044, usa"
"410","Youth City - Liberty Park","210 East 600 South, Salt Lake City, Utah",84111,"Exempt Afterschool Program - DWS Approved",-112.0924399,40.6999283,"3270 s 8400 w, magna, ut 84044, usa"
"411","Family, Friends & Neighbor","5317 S. Allendale Dr., Murray, Utah",84123,"Family, Friends & Neighbor",-112.0924399,40.6999283,"3270 s 8400 w, magna, ut 84044, usa"
"412","Challenger School - West Jordan","9424 S 300 W, Sandy, Utah",84070,"Exempt Center - Schoolbased",-112.0924399,40.6999283,"3270 s 8400 w, magna, ut 84044, usa"
"413","Challenger School - Holladay","9424 S 300 W, Sandy, Utah",NA,"Exempt Center - Schoolbased",-112.0924399,40.6999283,"3270 s 8400 w, magna, ut 84044, usa"
"414","Challenger School - Salt Lake","9424 S 300 W, Sandy, Utah",84070,"Exempt Center - Schoolbased",-112.0924399,40.6999283,"3270 s 8400 w, magna, ut 84044, usa"
"415","Challenger School - Sandy","9424 S 300 W, Sandy, Utah",84070,"Exempt Center - Schoolbased",-112.0924399,40.6999283,"3270 s 8400 w, magna, ut 84044, usa"
"416","Residential Certified","4203 W 11430 S, South Jordan, Utah",84009,"Residential Certified",-112.0924399,40.6999283,"3270 s 8400 w, magna, ut 84044, usa"
"417","Sandy Home Daycare","1135 E Electra Lane, Sandy, Utah",84094,"Family Licensed",-112.0924399,40.6999283,"3270 s 8400 w, magna, ut 84044, usa"
"418","ABC Great Beginnings-Murray","6006 South 300 West, Murray, Utah",84107,"Center Licensed",-112.0924399,40.6999283,"3270 s 8400 w, magna, ut 84044, usa"
"419","Salt Lake City Public Library - Day-Riverside Branch","1575 W 1000 N, Salt Lake City, Utah",84116,"Exempt Center",-112.0924399,40.6999283,"3270 s 8400 w, magna, ut 84044, usa"
"420","Megan-A-Difference","4332 South Early Duke Street, West Valley City, Utah",84120,"Family Licensed",-112.0924399,40.6999283,"3270 s 8400 w, magna, ut 84044, usa"
"421","Jordan High School Child Care Lab","95 E Beetdigger Blvd, Sandy, Utah",84070,"Exempt Center - Schoolbased",-112.0924399,40.6999283,"3270 s 8400 w, magna, ut 84044, usa"
"422","Family Licensed","514 N Morton Drive, Salt Lake City, Utah",84116,"Family Licensed",-112.0924399,40.6999283,"3270 s 8400 w, magna, ut 84044, usa"
"423","Family, Friends & Neighbor","1619 W Liljay Cir, Salt Lake City, Utah",84104,"Family, Friends & Neighbor",-112.0924399,40.6999283,"3270 s 8400 w, magna, ut 84044, usa"
"424","Learning Tree Southwest","2857 West 7800 South, West Jordan, Utah",84088,"Center Licensed",-112.0924399,40.6999283,"3270 s 8400 w, magna, ut 84044, usa"
"425","Capitol West Boys & Girls Club Youth Program","PO Box 57071, Murray, Utah",84157,"Exempt Afterschool Program - DWS Approved",-112.0924399,40.6999283,"3270 s 8400 w, magna, ut 84044, usa"
"426","Promise South Salt Lake- Commonwealth Performing Arts and Youth Entrepreneurial Center","220 E Morris Ave, 3rd Floor, Salt Lake City, Utah",84115,"Exempt Afterschool Program",-112.0924399,40.6999283,"3270 s 8400 w, magna, ut 84044, usa"
"427","Lola's Playhouse","4956 South 4055 West, Kearns, Utah",84118,"Family Licensed",-112.0924399,40.6999283,"3270 s 8400 w, magna, ut 84044, usa"
"428","Family, Friends & Neighbor","2241 E 3370 S, Salt Lake City, Utah",84109,"Family, Friends & Neighbor",-112.0924399,40.6999283,"3270 s 8400 w, magna, ut 84044, usa"
"429","Diane's Daycare","1157 South Emery Street, Salt Lake City, Utah",84104,"Family Licensed",-112.0924399,40.6999283,"3270 s 8400 w, magna, ut 84044, usa"
"430","Family, Friends & Neighbor","1402 North General Dr, Salt Lake City, Utah",84116,"Family, Friends & Neighbor",-112.0924399,40.6999283,"3270 s 8400 w, magna, ut 84044, usa"
"431","Rainbow of Love","5965 W Sugar Bowl Lane, West Valley City, Utah",84128,"Family Licensed",-112.0924399,40.6999283,"3270 s 8400 w, magna, ut 84044, usa"
"432","Montessori Children's House","1303 South 1100 East, Salt Lake City, Utah",84105,"Center Licensed",-112.0924399,40.6999283,"3270 s 8400 w, magna, ut 84044, usa"
"433","Little Friends Daycare SLC","1165 W. Brandonwood Dr., Murray, Utah",84123,"Family Licensed",-112.0924399,40.6999283,"3270 s 8400 w, magna, ut 84044, usa"
"434","Lina's Childcare","6531 South 4015 West, Taylorsville, Utah",84129,"Family Licensed",-112.0924399,40.6999283,"3270 s 8400 w, magna, ut 84044, usa"
"435","Sandy Club, The - A Safe Place for Boys & Girls","450 East 8680, Sandy, Utah",84070,"Exempt Afterschool Program",-112.0924399,40.6999283,"3270 s 8400 w, magna, ut 84044, usa"
"436","Spy Hop Productions","511 W 200 S, Salt Lake City, Utah",84101,"Exempt Afterschool Program",-112.0924399,40.6999283,"3270 s 8400 w, magna, ut 84044, usa"
"437","Family, Friends & Neighbor","3717 S Brookeside Dr, West Valley City, Utah",84120,"Family, Friends & Neighbor",-112.0924399,40.6999283,"3270 s 8400 w, magna, ut 84044, usa"
"438","Jardin de Amor","3676 Christy Hill Way, Taylorsville, Utah",84129,"Family Licensed",-112.0924399,40.6999283,"3270 s 8400 w, magna, ut 84044, usa"
"439","Family Licensed","3604 South Countrywest Drive, Magna, Utah",84044,"Family Licensed",-112.0924399,40.6999283,"3270 s 8400 w, magna, ut 84044, usa"
"440","Above & Beyond Child Care","1182 West 2400 South, West Valley City, Utah",84119,"Center Licensed",-112.0924399,40.6999283,"3270 s 8400 w, magna, ut 84044, usa"
"441","SLCAP Head Start - Salt Lake City (Sunnyside Ave)","1945 East Sunnyside Ave, Salt Lake City, Utah",84108,"Exempt Center",-112.0924399,40.6999283,"3270 s 8400 w, magna, ut 84044, usa"
"442","SLCAP Head Start - Sandy","9800 S 800 E, Sandy, Utah",84094,"Exempt Center",-112.0924399,40.6999283,"3270 s 8400 w, magna, ut 84044, usa"
"443","SLCAP Head Start - Kearns (4280 W)","5241 S 4280 W, Kearns, Utah",84118,"Exempt Center",-112.0924399,40.6999283,"3270 s 8400 w, magna, ut 84044, usa"
"444","SLCAP Head Start - Midvale (7800 S)","217 E 7800 S, Midvale, Utah",84047,"Exempt Center",-112.0924399,40.6999283,"3270 s 8400 w, magna, ut 84044, usa"
"445","SLCAP Head Start - Midvale (Center St)","362 W Center St, Midvale, Utah",84047,"Exempt Center",-112.0924399,40.6999283,"3270 s 8400 w, magna, ut 84044, usa"
"446","SLCAP Head Start - Murray","73 W 6100 S, Murray, Utah",84107,"Exempt Center",-112.0924399,40.6999283,"3270 s 8400 w, magna, ut 84044, usa"
"447","SLCAP Head Start - Riverton (12182 S)","3600 W 12182 S, Riverton, Utah",84065,"Exempt Center",-112.0924399,40.6999283,"3270 s 8400 w, magna, ut 84044, usa"
"448","SLCAP Head Start - West Valley City (2700 W)","3050 S 2700 W, West Valley City, Utah",84119,"Exempt Center",-112.0924399,40.6999283,"3270 s 8400 w, magna, ut 84044, usa"
"449","SLCAP Head Start - West Valley City (4100 S)","6447 W 4100 S, West Valley City, Utah",84128,"Exempt Center",-112.0924399,40.6999283,"3270 s 8400 w, magna, ut 84044, usa"
"450","SLCAP Head Start - West Valley City (Lester)","3060 S Lester, West Valley City, Utah",84119,"Exempt Center",-112.0924399,40.6999283,"3270 s 8400 w, magna, ut 84044, usa"
"451","SLCAP Head Start - Kearns (4620 W)","4901 S 4620 W, Kearns, Utah",84118,"Exempt Center",-112.0924399,40.6999283,"3270 s 8400 w, magna, ut 84044, usa"
"452","SLCAP Head Start - Kearns (5570 S)","4430 W 5570 S, Kearns, Utah",84118,"Exempt Center",-112.0924399,40.6999283,"3270 s 8400 w, magna, ut 84044, usa"
"453","SLCAP Head Start - Riverton (Redwood Rd)","12891 S Redwood R, Riverton, Utah",84065,"Exempt Center",-112.0924399,40.6999283,"3270 s 8400 w, magna, ut 84044, usa"
"454","SLCAP Head Start - Salt Lake City (900 W)","1307 S 900 W, Salt Lake City, Utah",84104,"Exempt Center",-112.0924399,40.6999283,"3270 s 8400 w, magna, ut 84044, usa"
"455","SLCAP Head Start - West Jordan (1700 W)","7430 S 1700 W, West Jordan, Utah",84084,"Exempt Center",-112.0924399,40.6999283,"3270 s 8400 w, magna, ut 84044, usa"
"456","SLCAP Head Start - West Jordan (2370 W)","7220 S 2370 W, West Jordan, Utah",84084,"Exempt Center",-112.0924399,40.6999283,"3270 s 8400 w, magna, ut 84044, usa"
"457","SLCAP Head Start - West Jordan (3400 W)","8400 S 3400 W, West Jordan, Utah",84088,"Exempt Center",-112.0924399,40.6999283,"3270 s 8400 w, magna, ut 84044, usa"
"458","Family, Friends & Neighbor","4002 S 1515 W, Salt Lake City, Utah",84123,"Family, Friends & Neighbor",-112.0924399,40.6999283,"3270 s 8400 w, magna, ut 84044, usa"
"459","Skyline High Preschool","3251 E 3760 S, Salt Lake City, Utah",84109,"Exempt Center - Schoolbased",-112.0924399,40.6999283,"3270 s 8400 w, magna, ut 84044, usa"
"460","Montessori Building Blocks for Life","5218 South Redwood Road, Taylorsville, Utah",84123,"Center Licensed",-112.0924399,40.6999283,"3270 s 8400 w, magna, ut 84044, usa"
"461","Family Support Center - Sugarhouse","2020 S Lake Street, Salt Lake City, Utah",84105,"Exempt Center",-112.0924399,40.6999283,"3270 s 8400 w, magna, ut 84044, usa"
"462","Family Support Center -  WVC","3663 S 3600 W, West Valley City, Utah",84119,"Exempt Center",-112.0924399,40.6999283,"3270 s 8400 w, magna, ut 84044, usa"
"463","Family Licensed","3365 South Diamond Ridge Circle, West Valley City, Utah",84128,"Family Licensed",-112.0924399,40.6999283,"3270 s 8400 w, magna, ut 84044, usa"
"464","Family Licensed","6257 South Hathaway Street, Taylorsville, Utah",84123,"Family Licensed",-112.0924399,40.6999283,"3270 s 8400 w, magna, ut 84044, usa"
"465","Family Licensed","4075 South 3515 West, West Valley City, Utah",84119,"Family Licensed",-112.0924399,40.6999283,"3270 s 8400 w, magna, ut 84044, usa"
"466","The Preschool Playhouse","3173 Jean Street, Magna, Utah",84044,"Family Licensed",-112.0924399,40.6999283,"3270 s 8400 w, magna, ut 84044, usa"
"467","Caterpillar Clubhouse Daycare","3330 West 5900 South, Taylorsville, Utah",84129,"Family Licensed",-112.0924399,40.6999283,"3270 s 8400 w, magna, ut 84044, usa"
"468","Family, Friends & Neighbor","3675 Lexington Park Dr., West Valley City, Utah",84119,"Family, Friends & Neighbor",-112.0924399,40.6999283,"3270 s 8400 w, magna, ut 84044, usa"
"469","Child and Family Development Center","225 s. 1400 e. rm 228, Salt Lake City, Utah",84112,"Exempt Center - Schoolbased",-112.0924399,40.6999283,"3270 s 8400 w, magna, ut 84044, usa"
"470","Promise South Salt Lake - Central Park Community Center","2797 S 200 E, South Salt Lake City, Utah",84115,"Exempt Afterschool Program - DWS Approved",-112.0924399,40.6999283,"3270 s 8400 w, magna, ut 84044, usa"
"471","Family Licensed","5442 West North Lilac Avenue, West Jordan, Utah",84084,"Family Licensed",-112.0924399,40.6999283,"3270 s 8400 w, magna, ut 84044, usa"
"472","Family Licensed","8014 South Hillers Drive, West Jordan, Utah",84088,"Family Licensed",-112.0924399,40.6999283,"3270 s 8400 w, magna, ut 84044, usa"
"473","Family, Friends & Neighbor","6457 S Dixie Dr, West Jordan, Utah",84084,"Family, Friends & Neighbor",-112.0924399,40.6999283,"3270 s 8400 w, magna, ut 84044, usa"
"474","Family Licensed","2865 W 7085 S, West Jordan, Utah",84084,"Family Licensed",-112.0924399,40.6999283,"3270 s 8400 w, magna, ut 84044, usa"
"475","Rachel Miller's Daycare","3840 South Main Street, Salt Lake City, Utah",84115,"Residential Certified",-112.0924399,40.6999283,"3270 s 8400 w, magna, ut 84044, usa"
"476","Family Licensed","1815 Fieldcrest Lane, Holladay, Utah",84117,"Family Licensed",-112.0924399,40.6999283,"3270 s 8400 w, magna, ut 84044, usa"
"477","Residential Certified","4260 South Chegwidden Lane, Taylorsville, Utah",84123,"Residential Certified",-112.0924399,40.6999283,"3270 s 8400 w, magna, ut 84044, usa"
"478","Residential Certified","4180 W 3268 S, West Valley City, Utah",84120,"Residential Certified",-112.0924399,40.6999283,"3270 s 8400 w, magna, ut 84044, usa"
"479","Family Licensed","3913 South 300 East, Salt Lake City, Utah",84107,"Family Licensed",-112.0924399,40.6999283,"3270 s 8400 w, magna, ut 84044, usa"
"480","Family, Friends & Neighbor","350 S Elizabeth St, Salt Lake City, Utah",84102,"Family, Friends & Neighbor",-112.0924399,40.6999283,"3270 s 8400 w, magna, ut 84044, usa"
"481","Family Licensed","3917 S 4340 W, West Valley City, Utah",84120,"Family Licensed",-112.0924399,40.6999283,"3270 s 8400 w, magna, ut 84044, usa"
"482","Family Licensed","4738 West 3145 South, West Valley City, Utah",84120,"Family Licensed",-112.0924399,40.6999283,"3270 s 8400 w, magna, ut 84044, usa"
"483","Learning Tree West","3655 West 2340 South, West Valley City, Utah",84120,"Center Licensed",-112.0924399,40.6999283,"3270 s 8400 w, magna, ut 84044, usa"
"484","American Preparatory Academy Community Learning Centers - WV2","3636 West 3100 South, West Valley City, Utah",84120,"Exempt Afterschool Program - DWS Approved",-112.0924399,40.6999283,"3270 s 8400 w, magna, ut 84044, usa"
"485","Family, Friends & Neighbor","2919 Appleton Dr, West Valley City, Utah",84119,"Family, Friends & Neighbor",-112.0924399,40.6999283,"3270 s 8400 w, magna, ut 84044, usa"
"486","Chapman Library - Kids Cafe (NBS)","577 S 900 W, Salt Lake City, Utah",84104,"Exempt Afterschool Program",-112.0924399,40.6999283,"3270 s 8400 w, magna, ut 84044, usa"
"487","Little Amigos Daycare","11119 South 2480 West, South Jordan, Utah",84095,"Family Licensed",-112.0924399,40.6999283,"3270 s 8400 w, magna, ut 84044, usa"
"488","Family, Friends & Neighbor","870 E 4070 S, Salt Lake City, Utah",84107,"Family, Friends & Neighbor",-112.0924399,40.6999283,"3270 s 8400 w, magna, ut 84044, usa"
"489","West Lake Jr. High","3400 South 3450 West, West Valley City, Utah",84119,"Exempt Afterschool Program",-112.0924399,40.6999283,"3270 s 8400 w, magna, ut 84044, usa"
"490","Granger High School Little Lancer Preschool","3580 S 3600 West, West Valley City, Utah",84119,"Exempt Center - Schoolbased",-112.0924399,40.6999283,"3270 s 8400 w, magna, ut 84044, usa"
"491","Adriana's Daycare","4271 South Bluebird Drive, West Valley City, Utah",84120,"Family Licensed",-112.0924399,40.6999283,"3270 s 8400 w, magna, ut 84044, usa"
"492","Waterford School","1480 E 9400 S, Sandy, Utah",84093,"Exempt Afterschool Program",-112.0924399,40.6999283,"3270 s 8400 w, magna, ut 84044, usa"
"493","U.S. Dream Academy @ Dual Immersion Academy","1155 South Glendale Drive, Salt Lake City, Utah",84104,"Exempt Afterschool Program",-112.0924399,40.6999283,"3270 s 8400 w, magna, ut 84044, usa"
"494","Mazal Mujinga","2339 W Bonniebrook Circle, Taylorsville, Utah",84129,"Residential Certified",-112.0924399,40.6999283,"3270 s 8400 w, magna, ut 84044, usa"
"495","Horizonte Instruction and Training Center Evening Program","1234 S Main St, Salt Lake City, Utah",84101,"Registered Teen Program",-112.0924399,40.6999283,"3270 s 8400 w, magna, ut 84044, usa"
"496","Zubida Home Day Care","1446 West Neville Court, West Valley City, Utah",84119,"Residential Certified",-112.0924399,40.6999283,"3270 s 8400 w, magna, ut 84044, usa"
"497","Betty Dacar's","5217 South Persille Drive, Taylorsville, Utah",84118,"Family Licensed",-112.0924399,40.6999283,"3270 s 8400 w, magna, ut 84044, usa"
"498","Little Angels Day Care","4163 South 2735 West, West Valley City, Utah",84119,"Family Licensed",-112.0924399,40.6999283,"3270 s 8400 w, magna, ut 84044, usa"
"499","YWCA Lolie Eccles Early Education Center","344 East 300 South, Salt Lake City, Utah",84111,"Center Licensed",-112.0924399,40.6999283,"3270 s 8400 w, magna, ut 84044, usa"
"500","Olympus Sr. High School Titan Tots","4055 S 2300 E, Holladay, Utah",84124,"Exempt Center - Schoolbased",-112.0924399,40.6999283,"3270 s 8400 w, magna, ut 84044, usa"
"501","Residential Certified","670 N 900 W, Salt Lake City, Utah",84116,"Residential Certified",-112.0924399,40.6999283,"3270 s 8400 w, magna, ut 84044, usa"
"502","Family Licensed","2590 West Grey Hackle Ln, Taylorsville, Utah",84129,"Family Licensed",-112.0924399,40.6999283,"3270 s 8400 w, magna, ut 84044, usa"
"503","Happy Kids Daycare","2285 South Main Street Suite R, Salt Lake City, Utah",84115,"Center Licensed",-112.0924399,40.6999283,"3270 s 8400 w, magna, ut 84044, usa"
"504","Montessori School of S.L. Inc.","2806 East 3300 South, Salt Lake City, Utah",84109,"Center Licensed",-112.0924399,40.6999283,"3270 s 8400 w, magna, ut 84044, usa"
"505","Ms. Heather's Day Care","5346 South Sydette Circle, Taylorsville, Utah",84129,"Family Licensed",-112.0924399,40.6999283,"3270 s 8400 w, magna, ut 84044, usa"
"506","Residential Certified","5599 South Whitewood Drive, Taylorsville, Utah",84129,"Residential Certified",-112.0924399,40.6999283,"3270 s 8400 w, magna, ut 84044, usa"
"507","Family Licensed","3359 West 7675 South, West Jordan, Utah",84084,"Family Licensed",-112.0924399,40.6999283,"3270 s 8400 w, magna, ut 84044, usa"
"508","Susan's Lullaby Nursery","4220 South 1355 West, Taylorsville, Utah",84123,"Family Licensed",-112.0924399,40.6999283,"3270 s 8400 w, magna, ut 84044, usa"
"509","Columbus Library","2530 S 500 E, Salt Lake City, Utah",84106,"Exempt Afterschool Program",-112.0924399,40.6999283,"3270 s 8400 w, magna, ut 84044, usa"
"510","Grace Lutheran School & Preschool","1815 E 9800 S, Sandy, Utah",84092,"Exempt Afterschool Program",-112.0924399,40.6999283,"3270 s 8400 w, magna, ut 84044, usa"
"511","Lina Day Care","3735 South Suffolk Circle, West Valley City, Utah",84119,"Family Licensed",-112.0924399,40.6999283,"3270 s 8400 w, magna, ut 84044, usa"
"512","Cottonwood Canyon Montessori","3422 E. Fort Union Blvd`, Cottonwood Heights, Utah",84121,"Center Licensed",-112.0924399,40.6999283,"3270 s 8400 w, magna, ut 84044, usa"
"513","Highland High Child Care Center","2166 S 1700 E, Salt Lake City, Utah",84106,"Exempt Center - Schoolbased",-112.0924399,40.6999283,"3270 s 8400 w, magna, ut 84044, usa"
"514","Friendship Garden","10078 South Majestic Canyon Road, Sandy, Utah",84092,"Family Licensed",-112.0924399,40.6999283,"3270 s 8400 w, magna, ut 84044, usa"
"515","Dahira Ali Noor","1175 Prospect St, Salt Lake City, Utah",84104,"Residential Certified",-112.0924399,40.6999283,"3270 s 8400 w, magna, ut 84044, usa"
"516","Utah Community Action Head Start - Oquirrh Hills","1307 South 900 West, Salt Lake City, Utah",84104,"Exempt Center",-112.0924399,40.6999283,"3270 s 8400 w, magna, ut 84044, usa"
"517","Utah Community Action Head Start - Redwood","1307 S 900 W, Salt Lake City, Utah",84104,"Exempt Center",-112.0924399,40.6999283,"3270 s 8400 w, magna, ut 84044, usa"
"518","Utah Community Action Head Start - West Jordan (NBS)","7720 S 2370 W, West Jordan, Utah",84084,"Exempt Center",-112.0924399,40.6999283,"3270 s 8400 w, magna, ut 84044, usa"
"519","Salt Lake County - South Salt Lake Child Care","2825 South 200 East, South Salt Lake, Utah",84115,"Center Licensed",-112.0924399,40.6999283,"3270 s 8400 w, magna, ut 84044, usa"
"520","Utah Community Action Head Start - SLCC","1307 S 900 W, Salt Lake City, Utah",84104,"Exempt Center",-112.0924399,40.6999283,"3270 s 8400 w, magna, ut 84044, usa"
"521","Brighton Child Care (Hourly)","3014 Morgan Drive, Salt Lake City, Utah",84124,"Hourly Center Licensed",-112.0924399,40.6999283,"3270 s 8400 w, magna, ut 84044, usa"
"522","Kids of Camelot","1823 S Bountiful Blvd, Bountiful, Utah",84010,"Center Licensed",-112.0924399,40.6999283,"3270 s 8400 w, magna, ut 84044, usa"
"523","LuAnn's Daycare","6711 South 1525 West, West Jordan, Utah",84084,"Family Licensed",-112.0924399,40.6999283,"3270 s 8400 w, magna, ut 84044, usa"
"524","Skool Days Child Care Center- South Jordan","P. O. Box 300, Draper, Utah",84020,"Center Licensed",-112.0924399,40.6999283,"3270 s 8400 w, magna, ut 84044, usa"
"525","Residential Certified","1468 Rothchild Drive, West Valley City, Utah",84119,"Residential Certified",-112.0924399,40.6999283,"3270 s 8400 w, magna, ut 84044, usa"
"526","Exempt In Home","650 N 300 W, Salt Lake City, Utah",84103,"Exempt In Home",-112.0924399,40.6999283,"3270 s 8400 w, magna, ut 84044, usa"
"527","Caring for Kids Two","2890 East Cottonwood Parkway, Salt Lake City, Utah",84121,"Center Licensed",-112.0924399,40.6999283,"3270 s 8400 w, magna, ut 84044, usa"
"528","Family, Friends & Neighbor","409 E Culross Lane, Draper, Utah",84020,"Family, Friends & Neighbor",-112.0924399,40.6999283,"3270 s 8400 w, magna, ut 84044, usa"
"529","Pioneer Elementary School","3860 South 3380 West, West Valley City, Utah",84119,"Exempt Center",-112.0924399,40.6999283,"3270 s 8400 w, magna, ut 84044, usa"
"530","Babes N Tots Care","2507 W Mont Sur Dr, Riverton, Utah",84065,"Exempt In Home",-112.0924399,40.6999283,"3270 s 8400 w, magna, ut 84044, usa"
"531","Little Love Childcare","2766 South Centerbrook Drive, West Valley City, Utah",84119,"Residential Certified",-112.0924399,40.6999283,"3270 s 8400 w, magna, ut 84044, usa"
"532","Family, Friends & Neighbor","558 N Redwood Road, Salt Lake City, Utah",84116,"Family, Friends & Neighbor",-112.0924399,40.6999283,"3270 s 8400 w, magna, ut 84044, usa"
"533","Zainab Omar Daycare","176 N Redwood Rd, Salt Lake City, Utah",84116,"Residential Certified",-112.0924399,40.6999283,"3270 s 8400 w, magna, ut 84044, usa"
"534","West Community Education","241 N 300 W, Salt Lake City, Utah",84103,"Registered Teen Program",-112.0924399,40.6999283,"3270 s 8400 w, magna, ut 84044, usa"
"535","Family, Friends & Neighbor","4851 W 2920 S, West Valley City, Utah",84120,"Family, Friends & Neighbor",-112.0924399,40.6999283,"3270 s 8400 w, magna, ut 84044, usa"
"536","U of U Early Childhood Education Center","1601 University Village, Salt Lake City, Utah",84108,"Center Licensed",-112.0924399,40.6999283,"3270 s 8400 w, magna, ut 84044, usa"
"537","La Petite Academy- Sandy","11347 South 1000 East, Sandy, Utah",84094,"Center Licensed",-112.0924399,40.6999283,"3270 s 8400 w, magna, ut 84044, usa"
"538","Family Licensed","6842 W 3100 S, West Valley City, Utah",84128,"Family Licensed",-112.0924399,40.6999283,"3270 s 8400 w, magna, ut 84044, usa"
"539","Promise South Salt Lake - Woodrow Wilson Elementary School","2567 S Main St, Salt Lake City, Utah",84115,"Exempt Afterschool Program - DWS Approved",-112.0924399,40.6999283,"3270 s 8400 w, magna, ut 84044, usa"
"540","Debbie's Daycare Inc.","4938 South Hidden Cove Drive, Taylorsville, Utah",84123,"Family Licensed",-112.0924399,40.6999283,"3270 s 8400 w, magna, ut 84044, usa"
"541","ABC Great Beginnings- West Valley","3424 South 3600 West, West Valley City, Utah",84119,"Center Licensed",-112.0924399,40.6999283,"3270 s 8400 w, magna, ut 84044, usa"
"542","Residential Certified","4476 s 120 W, Murray, Utah",84107,"Residential Certified",-112.0924399,40.6999283,"3270 s 8400 w, magna, ut 84044, usa"
"543","Jewish Community Center","2 North Medical Drive, Salt Lake City, Utah",84113,"Center Licensed",-112.0924399,40.6999283,"3270 s 8400 w, magna, ut 84044, usa"
"544","Jewish Community Center Hourly Child Care","2 North Medical Drive, Salt Lake City, Utah",84113,"Hourly Center Licensed",-112.0924399,40.6999283,"3270 s 8400 w, magna, ut 84044, usa"
"545","Dual Immersion Academy","1155 S Glendale Drive, Salt Lake City, Utah",84104,"Exempt Afterschool Program",-112.0924399,40.6999283,"3270 s 8400 w, magna, ut 84044, usa"
"546","Willow Creek Montessori","7839 S Highland Dr, Cottonwood Heights, Utah",84121,"Center Licensed",-112.0924399,40.6999283,"3270 s 8400 w, magna, ut 84044, usa"
"547","Family Licensed","2315 East Cavalier Drive, Salt Lake City, Utah",84121,"Family Licensed",-112.0924399,40.6999283,"3270 s 8400 w, magna, ut 84044, usa"
"548","South Jordan Recreation Center","10866 South Redwood Road, South Jordan, Utah",84095,"Hourly Center Licensed",-112.0924399,40.6999283,"3270 s 8400 w, magna, ut 84044, usa"
"549","South Jordan Kids Camp","10866 South Redwood Road, South Jordan, Utah",84095,"Licensed Afterschool Program",-112.0924399,40.6999283,"3270 s 8400 w, magna, ut 84044, usa"
"550","Family, Friends & Neighbor","5280 Begona Cir., West Jordan, Utah",84081,"Family, Friends & Neighbor",-112.0924399,40.6999283,"3270 s 8400 w, magna, ut 84044, usa"
"551","Family Licensed","4548 Wormwood Drive, West Valley City, Utah",84120,"Family Licensed",-112.0924399,40.6999283,"3270 s 8400 w, magna, ut 84044, usa"
"552","Happy Faces Bilingual Daycare","5047 West Currant Drive, South Jordan, Utah",84095,"Family Licensed",-112.0924399,40.6999283,"3270 s 8400 w, magna, ut 84044, usa"
"553","Bear Essentials Academy","2145 West 5400 South, Taylorsville, Utah",84118,"Center Licensed",-112.0924399,40.6999283,"3270 s 8400 w, magna, ut 84044, usa"
"554","Westlake Jr High","3400 S 3450 W, West Valley City, Utah",84119,"Registered Teen Program",-112.0924399,40.6999283,"3270 s 8400 w, magna, ut 84044, usa"
"555","Robert Frost Elementary Food Services","3444 W 4400 S, West Valley City, Utah",84119,"Exempt Afterschool Program",-112.0924399,40.6999283,"3270 s 8400 w, magna, ut 84044, usa"
"556","Hillsdale Elementary Food Services (NBS)","3275 West 3100 South, West Valley City, Utah",84119,"Exempt Afterschool Program - Schoolbased",-112.0924399,40.6999283,"3270 s 8400 w, magna, ut 84044, usa"
"557","Pacific Heritage Academy Food Services","1755 W 1100 N, Salt Lake City, Utah",84116,"Exempt Afterschool Program",-112.0924399,40.6999283,"3270 s 8400 w, magna, ut 84044, usa"
"558","Pleasant Green Elementary Food Services","8201 W 2700 S, Magna, Utah",84044,"Exempt Afterschool Program",-112.0924399,40.6999283,"3270 s 8400 w, magna, ut 84044, usa"
"559","Plymouth Elementary Food Services (NBS)","5220 S 1470 W, Murray, Utah",84123,"Exempt Afterschool Program - Schoolbased",-112.0924399,40.6999283,"3270 s 8400 w, magna, ut 84044, usa"
"560","South Kearns Elementary Food Services","4430 W 5570 S, Kearns, Utah",84118,"Exempt Afterschool Program - DWS Approved",-112.0924399,40.6999283,"3270 s 8400 w, magna, ut 84044, usa"
"561","Farnsworth Elementary Food Services (NBS)","3751 S 4225 W, West Valley City, Utah",84120,"Exempt Afterschool Program",-112.0924399,40.6999283,"3270 s 8400 w, magna, ut 84044, usa"
"562","Smart Kids - Kearns","5000 West 5035 South, Kearns, Utah",84118,"Center Licensed",-112.0924399,40.6999283,"3270 s 8400 w, magna, ut 84044, usa"
"563","Happy Time Child Care","163 East Burton Avenue, Salt Lake City, Utah",84115,"Family Licensed",-112.0924399,40.6999283,"3270 s 8400 w, magna, ut 84044, usa"
"564","Residential Certified","8192 South Lance Street, Midvale, Utah",84047,"Residential Certified",-112.0924399,40.6999283,"3270 s 8400 w, magna, ut 84044, usa"
"565","SLCAP Head Start - Copperview Yellow, Copperview Blue","8446 South Harrison Street, Midvale, Utah",84047,"Exempt Center",-112.0924399,40.6999283,"3270 s 8400 w, magna, ut 84044, usa"
"566","9th South Montessori","346 E 900 S, Salt Lake City, Utah",84111,"Center Licensed",-112.0924399,40.6999283,"3270 s 8400 w, magna, ut 84044, usa"
"567","BioKids","257 South 1400 East #201, Salt Lake City, Utah",84112,"Center Licensed",-112.0924399,40.6999283,"3270 s 8400 w, magna, ut 84044, usa"
"568","Family Licensed","2748 South 3145 West, West Valley City, Utah",84119,"Family Licensed",-112.0924399,40.6999283,"3270 s 8400 w, magna, ut 84044, usa"
"569","Family Licensed","2868 South Hunter Crest Drive, West Valley City, Utah",84128,"Family Licensed",-112.0924399,40.6999283,"3270 s 8400 w, magna, ut 84044, usa"
"570","Guadalupe Charter School","1385 North 1200 West, Salt Lake City, Utah",84116,"Exempt Afterschool Program",-112.0924399,40.6999283,"3270 s 8400 w, magna, ut 84044, usa"
"571","Family, Friends & Neighbor","3475 S Centennial Rd, Magna, Utah",84044,"Family, Friends & Neighbor",-112.0924399,40.6999283,"3270 s 8400 w, magna, ut 84044, usa"
"572","Cute Kids Daycare","536 W. Krista Court, Murray, Utah",84123,"Family Licensed",-112.0924399,40.6999283,"3270 s 8400 w, magna, ut 84044, usa"
"573","Family Licensed","4171 South 3600 West, West Valley City, Utah",84119,"Family Licensed",-112.0924399,40.6999283,"3270 s 8400 w, magna, ut 84044, usa"
"574","Brittney & Wendy Day Care","2131 West 5400 South, Taylorsville, Utah",84129,"Family Licensed",-112.0924399,40.6999283,"3270 s 8400 w, magna, ut 84044, usa"
"575","Family Licensed","1311 West Arapahoe Ave, Salt Lake City, Utah",84104,"Family Licensed",-112.0924399,40.6999283,"3270 s 8400 w, magna, ut 84044, usa"
"576","Little Sprouts Family Childcare","10694 S Superior Circle, Sandy, Utah",84094,"Family Licensed",-112.0924399,40.6999283,"3270 s 8400 w, magna, ut 84044, usa"
"577","Seps Learning Center","604 E Wilmington Avenue, Salt Lake City, Utah",84106,"Exempt Afterschool Program",-112.0924399,40.6999283,"3270 s 8400 w, magna, ut 84044, usa"
"578","Josephine's Day Care","1036 E. Sego Lily Drive, Sandy, Utah",84094,"Family Licensed",-112.0924399,40.6999283,"3270 s 8400 w, magna, ut 84044, usa"
"579","Kid Power","4050 South 2700 West, West Valley City, Utah",84119,"Center Licensed",-112.0924399,40.6999283,"3270 s 8400 w, magna, ut 84044, usa"
"580","Family Licensed","1909 S 700 E, Salt Lake City, Utah",84105,"Family Licensed",-112.0924399,40.6999283,"3270 s 8400 w, magna, ut 84044, usa"
"581","Family, Friends & Neighbor","8870 S State St, Sandy, Utah",84070,"Family, Friends & Neighbor",-112.0924399,40.6999283,"3270 s 8400 w, magna, ut 84044, usa"
"582","Residential Certified","1447 North General Drive, Salt Lake City, Utah",84116,"Residential Certified",-112.0924399,40.6999283,"3270 s 8400 w, magna, ut 84044, usa"
"583","Sorenson Multi-Cultural Center","855 West California Avenue, Salt Lake City, Utah",84104,"Licensed Afterschool Program",-112.0924399,40.6999283,"3270 s 8400 w, magna, ut 84044, usa"
"584","Residential Certified","7172 W Copperhill Dr, West Valley City, Utah",84128,"Residential Certified",-112.0924399,40.6999283,"3270 s 8400 w, magna, ut 84044, usa"
"585","Doodle Bugs Daycare","5724 W 13400 S, Herriman, Utah",84096,"Center Licensed",-112.0924399,40.6999283,"3270 s 8400 w, magna, ut 84044, usa"
"586","American Preparatory Academy Community Learning Centers -WV1","1255 W Crystal Avenue, West Valley City, Utah",84119,"Exempt Afterschool Program - DWS Approved",-112.0924399,40.6999283,"3270 s 8400 w, magna, ut 84044, usa"
"587","ABC Great Beginnings- Jordan Landing","7172 Center Park Drive, West Jordan, Utah",84084,"Center Licensed",-112.0924399,40.6999283,"3270 s 8400 w, magna, ut 84044, usa"
"588","Little Rascals","7174 South 2700 West, West Jordan, Utah",84084,"Family Licensed",-112.0924399,40.6999283,"3270 s 8400 w, magna, ut 84044, usa"
"589","Family, Friends & Neighbor","3901 Pluto Way, Salt Lake City, Utah",84124,"Family, Friends & Neighbor",-112.0924399,40.6999283,"3270 s 8400 w, magna, ut 84044, usa"
"590","Learning Tree East","4540 South 900 East, Salt Lake City, Utah",84117,"Center Licensed",-112.0924399,40.6999283,"3270 s 8400 w, magna, ut 84044, usa"
"591","Kathrine Quincy","1516 w Culpepper Circle, Taylorsville, Utah",84123,"Family Licensed",-112.0924399,40.6999283,"3270 s 8400 w, magna, ut 84044, usa"
"592","Kidz Academy Daycare and Preschool","4716 South 200 West, Murray, Utah",84107,"Center Licensed",-112.0924399,40.6999283,"3270 s 8400 w, magna, ut 84044, usa"
"593","Kidz Academy 2","4790 South Hanauer Street, Murray, Utah",84107,"Center Licensed",-112.0924399,40.6999283,"3270 s 8400 w, magna, ut 84044, usa"
"594","Residential Certified","771 South 200 East, Salt Lake City, Utah",84111,"Residential Certified",-112.0924399,40.6999283,"3270 s 8400 w, magna, ut 84044, usa"
"595","KinderCare-Draper","12265 South 1190 East, Draper, Utah",84020,"Center Licensed",-112.0924399,40.6999283,"3270 s 8400 w, magna, ut 84044, usa"
"596","Family, Friends & Neighbor","1665 S Riverside Dr, Salt Lake City, Utah",84104,"Family, Friends & Neighbor",-112.0924399,40.6999283,"3270 s 8400 w, magna, ut 84044, usa"
"597","Residential Certified","5216 W 4025 S, West Valley City, Utah",84120,"Residential Certified",-112.0924399,40.6999283,"3270 s 8400 w, magna, ut 84044, usa"
"598","Compass Preschool and Child Care","7713 South 1040 East, Midvale, Utah",84047,"Family Licensed",-112.0924399,40.6999283,"3270 s 8400 w, magna, ut 84044, usa"
"599","Compass Preschool and Child Care 2nd Location","7713 S 1040 E, Midvale, Utah",84047,"Center Licensed",-112.0924399,40.6999283,"3270 s 8400 w, magna, ut 84044, usa"
"600","Serengeti Springs Explorers","6729 West 7820 South, West Jordan, Utah",84088,"Center Licensed",-112.0924399,40.6999283,"3270 s 8400 w, magna, ut 84044, usa"
"601","Mother's Helper Child Care-Daybreak","10469 River Heights Drive, South Jodan, Utah",84095,"Center Licensed",-112.0924399,40.6999283,"3270 s 8400 w, magna, ut 84044, usa"
"602","Lil' Tootsie's Tot Spot","10496 Amaryllis Street, Sandy, Utah",84094,"Family Licensed",-112.0924399,40.6999283,"3270 s 8400 w, magna, ut 84044, usa"
"603","Lily of the Valley Daycare","4175 West 4490 South, West Valley City, Utah",84120,"Family Licensed",-112.0924399,40.6999283,"3270 s 8400 w, magna, ut 84044, usa"
"604","Family Licensed","1258 South Glendale Street, Salt Lake City, Utah",84104,"Family Licensed",-112.0924399,40.6999283,"3270 s 8400 w, magna, ut 84044, usa"
"605","Family Licensed","4716 S Hanauer St, Murray, Utah",84107,"Family Licensed",-112.0924399,40.6999283,"3270 s 8400 w, magna, ut 84044, usa"
"606","Daybreak Arts Academy","11221 Copper Rock Drive, South Jordan, Utah",84095,"Exempt Center - Schoolbased",-112.0924399,40.6999283,"3270 s 8400 w, magna, ut 84044, usa"
"607","Family Licensed","7579 South 4770 West, West Jordan, Utah",84084,"Family Licensed",-112.0924399,40.6999283,"3270 s 8400 w, magna, ut 84044, usa"
"608","KinderCare-Sandy","9165 South 1300 East, Sandy, Utah",84094,"Center Licensed",-112.0924399,40.6999283,"3270 s 8400 w, magna, ut 84044, usa"
"609","Family Licensed","4478 S 5720 W, West Valley City, Utah",84128,"Family Licensed",-112.0924399,40.6999283,"3270 s 8400 w, magna, ut 84044, usa"
"610","Rock-A-Bye Infant Child Care","3844 South 1100 East, Salt Lake City, Utah",84106,"Center Licensed",-112.0924399,40.6999283,"3270 s 8400 w, magna, ut 84044, usa"
"611","Cri Cri Child Care","2581 Carson Lane, West Jordan, Utah",84084,"Family Licensed",-112.0924399,40.6999283,"3270 s 8400 w, magna, ut 84044, usa"
"612","Chelcees Chickadees","7696 South Strawberry Drive, West Jordan, Utah",84084,"Family Licensed",-112.0924399,40.6999283,"3270 s 8400 w, magna, ut 84044, usa"
"613","Family, Friends & Neighbor","1639 Indiana Ave, Salt Lake City, Utah",84104,"Family, Friends & Neighbor",-112.0924399,40.6999283,"3270 s 8400 w, magna, ut 84044, usa"
"614","Family Licensed","8450 S. Redwood Road, West Jordan, Utah",84088,"Family Licensed",-112.0924399,40.6999283,"3270 s 8400 w, magna, ut 84044, usa"
"615","Family Licensed","1766 West 4805 South Apt. D, Taylorsville, Utah",84129,"Family Licensed",-112.0924399,40.6999283,"3270 s 8400 w, magna, ut 84044, usa"
"616","Canyons 21st Century Community Learning Center - Sandy Elementary School","8725 S 280 E, Sandy, Utah",84070,"Exempt Afterschool Program",-112.0924399,40.6999283,"3270 s 8400 w, magna, ut 84044, usa"
"617","Brighter Steps","5220 West Silvertip Drive, Kearns, Utah",84118,"Family Licensed",-112.0924399,40.6999283,"3270 s 8400 w, magna, ut 84044, usa"
"618","Yolanda's Daycare","1611 South Denver Street, Salt Lake City, Utah",84115,"Family Licensed",-112.0924399,40.6999283,"3270 s 8400 w, magna, ut 84044, usa"
"619","Residential Certified","242 East Handcart Way, Sandy, Utah",84070,"Residential Certified",-112.0924399,40.6999283,"3270 s 8400 w, magna, ut 84044, usa"
"620","Taylorsville High School Preschool","5225 S Redwood Rd, Taylorsville, Utah",84123,"Exempt Center - Schoolbased",-112.0924399,40.6999283,"3270 s 8400 w, magna, ut 84044, usa"
"621","Hilda's Day Care","6013 W. Laurel Canyon Dr., West Valley City, Utah",84118,"Family Licensed",-112.0924399,40.6999283,"3270 s 8400 w, magna, ut 84044, usa"
"622","University Neighborhood Partners - Hartland Partnership Center","1578 W 1700 S, Salt Lake City, Utah",84104,"Exempt Afterschool Program - DWS Approved",-112.0924399,40.6999283,"3270 s 8400 w, magna, ut 84044, usa"
"623","Family, Friends & Neighbor","3725 S Red Maple Rd, Salt Lake City, Utah",84106,"Family, Friends & Neighbor",-112.0924399,40.6999283,"3270 s 8400 w, magna, ut 84044, usa"
"624","Future Stars Daycare","2975 South 500 East, Salt Lake City, Utah",84106,"Center Licensed",-112.0924399,40.6999283,"3270 s 8400 w, magna, ut 84044, usa"
"625","First Friends","500 South Foothill Blvd #13, Salt Lake City, Utah",84148,"Center Licensed",-112.0924399,40.6999283,"3270 s 8400 w, magna, ut 84044, usa"
"626","Family Licensed","4503 West Twilight Drive, Taylorsville, Utah",84118,"Family Licensed",-112.0924399,40.6999283,"3270 s 8400 w, magna, ut 84044, usa"
"627","Creative Learning Academy of Utah (SL County)","2001 State Street, Salt Lake City, Utah",84115,"Center Licensed",-112.0924399,40.6999283,"3270 s 8400 w, magna, ut 84044, usa"
"628","Jackling Afterschool Program","3760 South 4610 West, West Valley City, Utah",84120,"Exempt Afterschool Program - DWS Approved",-112.0924399,40.6999283,"3270 s 8400 w, magna, ut 84044, usa"
"629","Family, Friends & Neighbor","527 W Fern Drive, Midvale, Utah",84047,"Family, Friends & Neighbor",-112.0924399,40.6999283,"3270 s 8400 w, magna, ut 84044, usa"
"630","Kearns High Cougar Cub Preschool","5525 S Cougar Lane, Kearns, Utah",84118,"Exempt Center - Schoolbased",-112.0924399,40.6999283,"3270 s 8400 w, magna, ut 84044, usa"
"631","Ana' daycare","4771South Dymock Circle, Taylorsville, Utah",84129,"Family Licensed",-112.0924399,40.6999283,"3270 s 8400 w, magna, ut 84044, usa"
"632","Bright Start Learning Center","2836 S 5600 W, West Valley City, Utah",84120,"Center Licensed",-112.0924399,40.6999283,"3270 s 8400 w, magna, ut 84044, usa"
"633","Mama J Day Care","2909 South 8900 West, Magna, Utah",84044,"Family Licensed",-112.0924399,40.6999283,"3270 s 8400 w, magna, ut 84044, usa"
"634","The Winner School","6120 South 2075 East, Salt Lake City, Utah",84121,"Center Licensed",-112.0924399,40.6999283,"3270 s 8400 w, magna, ut 84044, usa"
"635","Quality Infant Care","3434 East Bengal Boulevard, Cottonwood Heights, Utah",84121,"Residential Certified",-112.0924399,40.6999283,"3270 s 8400 w, magna, ut 84044, usa"
"636","Family, Friends & Neighbor","3193 S Meadowlark Dr, West Valley City, Utah",84119,"Family, Friends & Neighbor",-112.0924399,40.6999283,"3270 s 8400 w, magna, ut 84044, usa"
"637","Family, Friends & Neighbor","2309 W. Fly Catcher Ln, West Valley City, Utah",84119,"Family, Friends & Neighbor",-112.0924399,40.6999283,"3270 s 8400 w, magna, ut 84044, usa"
"638","Utah Community Action Head Start - Catherine C. Hoskins","1307 S 900 W, Salt Lake City, Utah",84104,"Exempt Center",-112.0924399,40.6999283,"3270 s 8400 w, magna, ut 84044, usa"
"639","Family Licensed","1443 South 1000 East, Salt Lake City, Utah",84105,"Family Licensed",-112.0924399,40.6999283,"3270 s 8400 w, magna, ut 84044, usa"
"640","L n A Day Care","5012 West 5400 South, Kearns, Utah",84118,"Family Licensed",-112.0924399,40.6999283,"3270 s 8400 w, magna, ut 84044, usa"
"641","Youth City - Central City","615 South 300 East, Salt Lake City, Utah",84111,"Exempt Afterschool Program - DWS Approved",-112.0924399,40.6999283,"3270 s 8400 w, magna, ut 84044, usa"
"642","New Awakenings","9140 S Judd Lane, West Jordan, Utah",84088,"Family Licensed",-112.0924399,40.6999283,"3270 s 8400 w, magna, ut 84044, usa"
"643","Family, Friends & Neighbor","4683 Arlington Park Dr, West Valley City, Utah",84120,"Family, Friends & Neighbor",-112.0924399,40.6999283,"3270 s 8400 w, magna, ut 84044, usa"
"644","Family Licensed","3700 Calvin Drive, West Valley City, Utah",84120,"Family Licensed",-112.0924399,40.6999283,"3270 s 8400 w, magna, ut 84044, usa"
"645","Family Licensed","1204 South Ontario Drive, Salt Lake City, Utah",84104,"Family Licensed",-112.0924399,40.6999283,"3270 s 8400 w, magna, ut 84044, usa"
"646","Residential Certified","640 South 400 East, Salt Lake City, Utah",84111,"Residential Certified",-112.0924399,40.6999283,"3270 s 8400 w, magna, ut 84044, usa"
"647","Avenues Preschool","410 East Third Avenue, Salt Lake City, Utah",84103,"Center Licensed",-112.0924399,40.6999283,"3270 s 8400 w, magna, ut 84044, usa"
"648","Family Licensed","5113 South 3600 West, Taylorsville, Utah",84129,"Family Licensed",-112.0924399,40.6999283,"3270 s 8400 w, magna, ut 84044, usa"
"649","Silver Hills Afterschool Program","5770 West 5100 South, Salt Lake City, Utah",84118,"Exempt Afterschool Program - DWS Approved",-112.0924399,40.6999283,"3270 s 8400 w, magna, ut 84044, usa"
"650","City Academy HEART Program","555 E 200 S, Salt Lake City, Utah",84102,"Exempt Afterschool Program",-112.0924399,40.6999283,"3270 s 8400 w, magna, ut 84044, usa"
"651","City Academy","555 East 200 South, Salt Lake City, Utah",84102,"Exempt Afterschool Program",-112.0924399,40.6999283,"3270 s 8400 w, magna, ut 84044, usa"
"652","Little Rascals Child Care Center","186 East Whitlock Avenue(2500 South), Salt Lake City, Utah",84115,"Center Licensed",-112.0924399,40.6999283,"3270 s 8400 w, magna, ut 84044, usa"
"653","Hilltop Christian School","985 East 10600 South, Sandy, Utah",84094,"Center Licensed",-112.0924399,40.6999283,"3270 s 8400 w, magna, ut 84044, usa"
"654","Granite School District - Granite Peaks High School","501 East 3900 South, Salt Lake City, Utah",84107,"Exempt Afterschool Program",-112.0924399,40.6999283,"3270 s 8400 w, magna, ut 84044, usa"
"655","Beehive Science & Technology Academy","830 E 9400 S, Sandy, Utah",84094,"Exempt Afterschool Program",-112.0924399,40.6999283,"3270 s 8400 w, magna, ut 84044, usa"
"656","Rowland Hall- St. Mark's Beginning School","720 Guardsman Way, Salt Lake City, Utah",84108,"Exempt Afterschool Program",-112.0924399,40.6999283,"3270 s 8400 w, magna, ut 84044, usa"
"657","Children's Academy Preschool Corporation","6910 South Highland Drive (1800 East), Cottonwood Heights, Utah",84121,"Center Licensed",-112.0924399,40.6999283,"3270 s 8400 w, magna, ut 84044, usa"
"658","Residential Certified","1387 West 3630 South, West Valley City, Utah",84119,"Residential Certified",-112.0924399,40.6999283,"3270 s 8400 w, magna, ut 84044, usa"
"659","Residential Certified","6815 W Merrilie Circle, West Valley City, Utah",84128,"Residential Certified",-112.0924399,40.6999283,"3270 s 8400 w, magna, ut 84044, usa"
"660","Residential Certified","6333 West Lago Grande Drive, West Valley City, Utah",84128,"Residential Certified",-112.0924399,40.6999283,"3270 s 8400 w, magna, ut 84044, usa"
"661","Residential Certified","4129 South Mackay Meadows, West Valley City, Utah",84119,"Residential Certified",-112.0924399,40.6999283,"3270 s 8400 w, magna, ut 84044, usa"
"662","Rainy Day Daycare","4069 Sheri Way, West Valley City, Utah",84120,"Family Licensed",-112.0924399,40.6999283,"3270 s 8400 w, magna, ut 84044, usa"
"663","Family, Friends & Neighbor","4070 S 1300 W, Taylorsville, Utah",84123,"Family, Friends & Neighbor",-112.0924399,40.6999283,"3270 s 8400 w, magna, ut 84044, usa"
"664","Emily Sessions","5072 S 1130 W, Taylorsville, Utah",84123,"Family Licensed",-112.0924399,40.6999283,"3270 s 8400 w, magna, ut 84044, usa"
"665","Applepine Country Daycare","844 East 7800 South, Midvale, Utah",84047,"Family Licensed",-112.0924399,40.6999283,"3270 s 8400 w, magna, ut 84044, usa"
"666","Family, Friends & Neighbor","3355 S Hogan St, West Valley City, Utah",84119,"Family, Friends & Neighbor",-112.0924399,40.6999283,"3270 s 8400 w, magna, ut 84044, usa"
"667","Family, Friends & Neighbor","1398 W Rothchild Dr, West Valley City, Utah",84119,"Family, Friends & Neighbor",-112.0924399,40.6999283,"3270 s 8400 w, magna, ut 84044, usa"
"668","Family Licensed","1855 East Severn Drive, Holladay, Utah",84124,"Family Licensed",-112.0924399,40.6999283,"3270 s 8400 w, magna, ut 84044, usa"
"669","Family, Friends & Neighbor","3946 Los Flores St, West Valley City, Utah",84119,"Family, Friends & Neighbor",-112.0924399,40.6999283,"3270 s 8400 w, magna, ut 84044, usa"
"670","Dancing Moose Montessori School - LE","4428 Links Dr, West Valley City, Utah",84120,"Exempt Afterschool Program - DWS Approved",-112.0924399,40.6999283,"3270 s 8400 w, magna, ut 84044, usa"
"671","Sunshine Academy","7373 West 3500 South, Magna, Utah",84044,"Center Licensed",-112.0924399,40.6999283,"3270 s 8400 w, magna, ut 84044, usa"
"672","Sego Littles Toddler Care","1909 E Sego Lily Dr, Sandy, Utah",84092,"Exempt In Home",-112.0924399,40.6999283,"3270 s 8400 w, magna, ut 84044, usa"
"673","Other Facility",", , Utah",NA,"Other Facility",-112.0924399,40.6999283,"3270 s 8400 w, magna, ut 84044, usa"
"674","West Valley City Library","2880 W 3650 S, West Valley City, Utah",84119,"Exempt Center",-112.0924399,40.6999283,"3270 s 8400 w, magna, ut 84044, usa"
"675","Family Licensed","3365 South Diamond Ridge Circle, West Valley City, Utah",84128,"Family Licensed",-112.0924399,40.6999283,"3270 s 8400 w, magna, ut 84044, usa"
"676","Family Licensed","5531 West Bellagio Court, Herriman, Utah",84096,"Family Licensed",-112.0924399,40.6999283,"3270 s 8400 w, magna, ut 84044, usa"
"677","Central City Recreation Center","615 South 300 East, Salt Lake City, Utah",84111,"Center Licensed",-112.0924399,40.6999283,"3270 s 8400 w, magna, ut 84044, usa"
"678","The Children's Home","4547 South 4000 West, West Valley City, Utah",84120,"Center Licensed",-112.0924399,40.6999283,"3270 s 8400 w, magna, ut 84044, usa"
"679","Family Licensed","489 East 3400 South, Salt Lake City, Utah",84115,"Family Licensed",-112.0924399,40.6999283,"3270 s 8400 w, magna, ut 84044, usa"
"680","Family, Friends & Neighbor","373 East Bonnie Lane, Salt Lake City, Utah",84115,"Family, Friends & Neighbor",-112.0924399,40.6999283,"3270 s 8400 w, magna, ut 84044, usa"
"681","Family, Friends & Neighbor","373 E Bonnie Lane, Salt Lake City, Utah",84115,"Family, Friends & Neighbor",-112.0924399,40.6999283,"3270 s 8400 w, magna, ut 84044, usa"
"682","Clayton- SLC Sch. District Extended Day/Year","1471 South 1800 East, Salt Lake City, Utah",84108,"Exempt Afterschool Program",-112.0924399,40.6999283,"3270 s 8400 w, magna, ut 84044, usa"
"683","Uintah After School Program","1571 East 1300 South, Salt Lake City, Utah",84105,"Exempt Afterschool Program",-112.0924399,40.6999283,"3270 s 8400 w, magna, ut 84044, usa"
"684","Meadowlark After School Program","497 North Morton Drive, Salt Lake City, Utah",84116,"Exempt Afterschool Program",-112.0924399,40.6999283,"3270 s 8400 w, magna, ut 84044, usa"
"685","Franklin After School Program","1115 West 300 South, Salt Lake City, Utah",84104,"Exempt Afterschool Program",-112.0924399,40.6999283,"3270 s 8400 w, magna, ut 84044, usa"
"686","Edison After School Program","466 South Cheyenne, Salt Lake City, Utah",84104,"Exempt Afterschool Program",-112.0924399,40.6999283,"3270 s 8400 w, magna, ut 84044, usa"
"687","Indian Hills After School Program","2496 St. Mary's Drive, Salt Lake City, Utah",84108,"Exempt Afterschool Program",-112.0924399,40.6999283,"3270 s 8400 w, magna, ut 84044, usa"
"688","Newman After School Program","1269 North Colorado Street, Salt Lake City, Utah",84116,"Exempt Afterschool Program - DWS Approved",-112.0924399,40.6999283,"3270 s 8400 w, magna, ut 84044, usa"
"689","Whittier After School Program","1600 South 300 East, Salt Lake City, Utah",84115,"Exempt Afterschool Program - DWS Approved",-112.0924399,40.6999283,"3270 s 8400 w, magna, ut 84044, usa"
"690","Rose Park After School Program","1105 West 1000 North, Salt Lake City, Utah",84116,"Exempt Afterschool Program - DWS Approved",-112.0924399,40.6999283,"3270 s 8400 w, magna, ut 84044, usa"
"691","Parkview After School Program","970 South Emery Street, Salt Lake City, Utah",84104,"Exempt Afterschool Program - DWS Approved",-112.0924399,40.6999283,"3270 s 8400 w, magna, ut 84044, usa"
"692","Wasatch After School Program","30 R Street, Salt Lake City, Utah",84103,"Exempt Afterschool Program",-112.0924399,40.6999283,"3270 s 8400 w, magna, ut 84044, usa"
"693","Backman After School Program","601 North 1500 West, Salt Lake City, Utah",84116,"Exempt Afterschool Program",-112.0924399,40.6999283,"3270 s 8400 w, magna, ut 84044, usa"
"694","Riley After School Program","1410 South 800 West, Salt Lake City, Utah",84104,"Exempt Afterschool Program - DWS Approved",-112.0924399,40.6999283,"3270 s 8400 w, magna, ut 84044, usa"
"695","Lincoln After School Program","1090 South Roberta Street, Salt Lake City, Utah",84111,"Exempt Afterschool Program - DWS Approved",-112.0924399,40.6999283,"3270 s 8400 w, magna, ut 84044, usa"
"696","Glendale Middle School After School Program","1430 West Andrew Avenue, Salt Lake City, Utah",84104,"Exempt Afterschool Program",-112.0924399,40.6999283,"3270 s 8400 w, magna, ut 84044, usa"
"697","Beacon Heights After School Program","1850 South 2500 East, Salt Lake City, Utah",84108,"Exempt Afterschool Program",-112.0924399,40.6999283,"3270 s 8400 w, magna, ut 84044, usa"
"698","Hawthorne After School Program","1675 South 600 East, Salt Lake City, Utah",84105,"Exempt Afterschool Program",-112.0924399,40.6999283,"3270 s 8400 w, magna, ut 84044, usa"
"699","Bonneville After School Program","1145 South 1900 East, Salt Lake City, Utah",84108,"Exempt Afterschool Program",-112.0924399,40.6999283,"3270 s 8400 w, magna, ut 84044, usa"
"700","Escalante After School Program","1810 West 900 North, Salt Lake City, Utah",84116,"Exempt Afterschool Program - DWS Approved",-112.0924399,40.6999283,"3270 s 8400 w, magna, ut 84044, usa"
"701","Highland Park After School Program","1738  E 2700 South, Salt Lake City, Utah",84016,"Exempt Afterschool Program",-112.0924399,40.6999283,"3270 s 8400 w, magna, ut 84044, usa"
"702","Washington After School Program","420 North 200 West, Salt Lake City, Utah",84103,"Exempt Afterschool Program - DWS Approved",-112.0924399,40.6999283,"3270 s 8400 w, magna, ut 84044, usa"
"703","Ensign After School Program","775 12th Avenue, Salt Lake City, Utah",84103,"Exempt Afterschool Program",-112.0924399,40.6999283,"3270 s 8400 w, magna, ut 84044, usa"
"704","Dilworth After School Program","1953 South 2100 East, Salt Lake City, Utah",84108,"Exempt Afterschool Program",-112.0924399,40.6999283,"3270 s 8400 w, magna, ut 84044, usa"
"705","Mountain View After School Program","1380 South Navajo Dr., Salt Lake City, Utah",84104,"Exempt Afterschool Program",-112.0924399,40.6999283,"3270 s 8400 w, magna, ut 84044, usa"
"706","Emerson After School Program","1017 East Harrison Avenue, Salt Lake City, Utah",84105,"Exempt Afterschool Program",-112.0924399,40.6999283,"3270 s 8400 w, magna, ut 84044, usa"
"707","Bennion After School Program","429 South 800 East, Salt Lake City, Utah",84102,"Exempt Afterschool Program",-112.0924399,40.6999283,"3270 s 8400 w, magna, ut 84044, usa"
"708","North Star After School Program","1545 North Morton Drive, Salt Lake City, Utah",84116,"Exempt Afterschool Program",-112.0924399,40.6999283,"3270 s 8400 w, magna, ut 84044, usa"
"709","Nibley Park After School Program","2785 South 800 East, Salt Lake City, Utah",84106,"Exempt Afterschool Program - DWS Approved",-112.0924399,40.6999283,"3270 s 8400 w, magna, ut 84044, usa"
"710","Salt Lake County After School Program at Brockbank Jr. High","2935 South 8560 West, Magna, Utah",84044,"Exempt Afterschool Program",-112.0924399,40.6999283,"3270 s 8400 w, magna, ut 84044, usa"
"711","Tina Snow's Daycare","5977 Park Wood Drive, Kearns, Utah",84118,"Family Licensed",-112.0924399,40.6999283,"3270 s 8400 w, magna, ut 84044, usa"
"712","Lit'l Scholars Learning Center Sugarhouse","653 East Simpson Avenue, Salt Lake City, Utah",84106,"Center Licensed",-112.0924399,40.6999283,"3270 s 8400 w, magna, ut 84044, usa"
"713","Fun Time Child Care","1248 South 300 East, Salt Lake City, Utah",84111,"Center Licensed",-112.0924399,40.6999283,"3270 s 8400 w, magna, ut 84044, usa"
"714","The Children's Place","3595 South 3600 West, West Valley City, Utah",84119,"Center Licensed",-112.0924399,40.6999283,"3270 s 8400 w, magna, ut 84044, usa"
"715","Infinite Success Academy","10504 S Redwood Rd, Salt Lake City, Utah",84095,"Center Licensed",-112.0924399,40.6999283,"3270 s 8400 w, magna, ut 84044, usa"
"716","Almost Home Playcare","180 West Winchester Street, Murray, Utah",84107,"Center Licensed",-112.0924399,40.6999283,"3270 s 8400 w, magna, ut 84044, usa"
"717","Philo T. Farnsworth Elementary School","3751 South 4225 West, West Valley City, Utah",84120,"Exempt Afterschool Program - Schoolbased",-112.0924399,40.6999283,"3270 s 8400 w, magna, ut 84044, usa"
"718","Cottonwood High School - Cottonwood Kolt Kids","5715 South 1300 East, Salt Lake City, Utah",84117,"Exempt Center - Schoolbased",-112.0924399,40.6999283,"3270 s 8400 w, magna, ut 84044, usa"
"719","Family, Friends & Neighbor","5283 S Cobble Creek Rd, Murray, Utah",84117,"Family, Friends & Neighbor",-112.0924399,40.6999283,"3270 s 8400 w, magna, ut 84044, usa"
"720","Family, Friends & Neighbor","3260 Franklin Circle, Magna, Utah",84044,"Family, Friends & Neighbor",-112.0924399,40.6999283,"3270 s 8400 w, magna, ut 84044, usa"
"721","Bright Horizons @ U of U Research Park","419 Wakara Way, Salt Lake City, Utah",84108,"Center Licensed",-112.0924399,40.6999283,"3270 s 8400 w, magna, ut 84044, usa"
"722","Monica's Daycare","3856 South Cilma Circle, West Valley City, Utah",84128,"Family Licensed",-112.0924399,40.6999283,"3270 s 8400 w, magna, ut 84044, usa"
"723","SLCAP Head Start - Bellview Elementary","9800 S 800 E, Sandy, Utah",84094,"Exempt Center",-112.0924399,40.6999283,"3270 s 8400 w, magna, ut 84044, usa"
"724","SLCAP Head Start - 1, 2, 3","2825 S 200 E, Salt Lake City, Utah",84115,"Exempt Center",-112.0924399,40.6999283,"3270 s 8400 w, magna, ut 84044, usa"
"725","Family, Friends & Neighbor","2640 W 3360 S, West Valley City, Utah",84119,"Family, Friends & Neighbor",-112.0924399,40.6999283,"3270 s 8400 w, magna, ut 84044, usa"
"726","Copperview Community Center","8446 South Harrison Street, Midvale, Utah",84047,"Center Licensed",-112.0924399,40.6999283,"3270 s 8400 w, magna, ut 84044, usa"
"727","West Jordan High Junior Jags","8136 S 2700 W, West Jordan, Utah",84088,"Exempt Center - Schoolbased",-112.0924399,40.6999283,"3270 s 8400 w, magna, ut 84044, usa"
"728","Family Licensed","3117 West Uintah Ridge Court, Taylorsville, Utah",84129,"Family Licensed",-112.0924399,40.6999283,"3270 s 8400 w, magna, ut 84044, usa"
"729","Odyssey House Children's Services","344 East 100 South, Salt Lake City, Utah",84111,"Center Licensed",-112.0924399,40.6999283,"3270 s 8400 w, magna, ut 84044, usa"
"730","Our Friendship Club","1327 Carousel Street, Salt Lake City, Utah",84116,"Family Licensed",-112.0924399,40.6999283,"3270 s 8400 w, magna, ut 84044, usa"
"731","Promise South Salt Lake - Lincoln Elementary","400 E 3700 S, Salt Lake City, Utah",84115,"Exempt Afterschool Program - DWS Approved",-112.0924399,40.6999283,"3270 s 8400 w, magna, ut 84044, usa"
"732","Kinder Landing","5171 Saddleback Drive, Holladay, Utah",84117,"Family Licensed",-112.0924399,40.6999283,"3270 s 8400 w, magna, ut 84044, usa"
"733","Little Lambs Play & Learn","8575 South 700 East, Sandy, Utah",84070,"Center Licensed",-112.0924399,40.6999283,"3270 s 8400 w, magna, ut 84044, usa"
"734","Solitude Mountain Resort Day Care","12000 Big Cottonwood, Solitude, Utah",84121,"Hourly Center Licensed",-112.0924399,40.6999283,"3270 s 8400 w, magna, ut 84044, usa"
"735","Jewish Community Center Out of School Time Center","2 North Medical Drive, Salt Lake City, Utah",84113,"Licensed Afterschool Program",-112.0924399,40.6999283,"3270 s 8400 w, magna, ut 84044, usa"
"736","Family Licensed","9194 South Benson Way, Sandy, Utah",84070,"Family Licensed",-112.0924399,40.6999283,"3270 s 8400 w, magna, ut 84044, usa"
"737","ABC Great Beginnings- Riverton","12523 South 4150 West, Riverton, Utah",84065,"Center Licensed",-112.0924399,40.6999283,"3270 s 8400 w, magna, ut 84044, usa"
"738","Residential Certified","1446 W. Preston Villa Cove, West Jordan, Utah",84088,"Residential Certified",-112.0924399,40.6999283,"3270 s 8400 w, magna, ut 84044, usa"
"739","Family Licensed","4291 South Nielsen Way, West Valley City, Utah",84119,"Family Licensed",-112.0924399,40.6999283,"3270 s 8400 w, magna, ut 84044, usa"
"740","Aneb Sultan","176 N Redwood Rd, Salt Lake City, Utah",84116,"Residential Certified",-112.0924399,40.6999283,"3270 s 8400 w, magna, ut 84044, usa"
"741","Kids Etc. Preschool","9825 South 1300 East, Sandy, Utah",84094,"Center Licensed",-112.0924399,40.6999283,"3270 s 8400 w, magna, ut 84044, usa"
"742","Twenty-Four Seven II","1161 West 2320 South, West Valley City, Utah",84119,"Center Licensed",-112.0924399,40.6999283,"3270 s 8400 w, magna, ut 84044, usa"
"743","St. John's Community Child Development Center","475 East Herbert Avenue, Salt Lake City, Utah",84111,"Center Licensed",-112.0924399,40.6999283,"3270 s 8400 w, magna, ut 84044, usa"
"744","Rooted Academy","11477 S Redwood Rd, South Jordan, Utah",84095,"Center Licensed",-112.0924399,40.6999283,"3270 s 8400 w, magna, ut 84044, usa"
"745","US Dream Academy","1155 S Glendale Dr, Salt Lake City, Utah",84104,"Exempt Afterschool Program",-112.0924399,40.6999283,"3270 s 8400 w, magna, ut 84044, usa"
"746","A Little Ray of Sunshine","4643 South 1175 West, Taylorsville, Utah",84123,"Residential Certified",-112.0924399,40.6999283,"3270 s 8400 w, magna, ut 84044, usa"
"747","Glendale-Mountain View Community Learning Center","1388 S Navajo St, Salt Lake City, Utah",84104,"Exempt Center",-112.0924399,40.6999283,"3270 s 8400 w, magna, ut 84044, usa"
"748","Lincoln Elementary School - Granite School District","450 East 3700 South, Salt Lake City, Utah",84115,"Exempt Afterschool Program",-112.0924399,40.6999283,"3270 s 8400 w, magna, ut 84044, usa"
"749","Family Licensed","10285 Sage Spring Circle, South Jordan, Utah",84009,"Family Licensed",-112.0924399,40.6999283,"3270 s 8400 w, magna, ut 84044, usa"
"750","Talbots Day Care","908 Rosebud Court, Draper, Utah",84020,"Family Licensed",-112.0924399,40.6999283,"3270 s 8400 w, magna, ut 84044, usa"
"751","Bell View/Edgemont After School Program","9800 S 800 E, Sandy, Utah",84094,"Exempt Afterschool Program",-112.0924399,40.6999283,"3270 s 8400 w, magna, ut 84044, usa"
"752","Family Licensed","448 East Knollcrest Street, Murray, Utah",84107,"Family Licensed",-112.0924399,40.6999283,"3270 s 8400 w, magna, ut 84044, usa"
"753","Boys and Girls Club of South Valley","P.O. Box 57071, Murray, Utah",84157,"Center Licensed",-112.0924399,40.6999283,"3270 s 8400 w, magna, ut 84044, usa"
"754","Family Licensed","8687 South Jenkins Lane, West Jordan, Utah",84088,"Family Licensed",-112.0924399,40.6999283,"3270 s 8400 w, magna, ut 84044, usa"
"755","Allen's Preschool","4708 South 200 West, Murray, Utah",84107,"Center Licensed",-112.0924399,40.6999283,"3270 s 8400 w, magna, ut 84044, usa"
"756","Redwood Rec Summer Camp","3060 South Lester Street, West Valley City, Utah",84119,"Licensed Afterschool Program",-112.0924399,40.6999283,"3270 s 8400 w, magna, ut 84044, usa"
"757","Family, Friends & Neighbor","7205 Apple Honey Ln, Midvale, Utah",84047,"Family, Friends & Neighbor",-112.0924399,40.6999283,"3270 s 8400 w, magna, ut 84044, usa"
"758","All My Kids Child Care","2550 East Venus Circle, Salt Lake City, Utah",84124,"Family Licensed",-112.0924399,40.6999283,"3270 s 8400 w, magna, ut 84044, usa"
"759","Tilley Time II","4579 South 1175 West, Taylorsville, Utah",84123,"Center Licensed",-112.0924399,40.6999283,"3270 s 8400 w, magna, ut 84044, usa"
"760","UCA Meadowbrook","1307 South 900 West, Salt Lake City, Utah",84104,"Center Licensed",-112.0924399,40.6999283,"3270 s 8400 w, magna, ut 84044, usa"
"761","UCA - Mountain View Elementary School","1307 S 900 W, Salt Lake City, Utah",84104,"Exempt Afterschool Program - DWS Approved",-112.0924399,40.6999283,"3270 s 8400 w, magna, ut 84044, usa"
"762","Family Licensed","4796 River Meadow Way, Taylorsville, Utah",84123,"Family Licensed",-112.0924399,40.6999283,"3270 s 8400 w, magna, ut 84044, usa"
"763","Midvale Middle School/ Teen Center/Boys & Girls  Club of S.V.","7852 Pioneer Street, Midvale, Utah",84047,"Exempt Afterschool Program",-112.0924399,40.6999283,"3270 s 8400 w, magna, ut 84044, usa"
"764","Our Little Rug Ratz Daycare","3884 Sout 6580 West, West Valley City, Utah",84128,"Family Licensed",-112.0924399,40.6999283,"3270 s 8400 w, magna, ut 84044, usa"
"765","Family, Friends & Neighbor","463 E 5600 S, Murray, Utah",84107,"Family, Friends & Neighbor",-112.0924399,40.6999283,"3270 s 8400 w, magna, ut 84044, usa"
"766","Family Licensed","2999 Shoreline Drive, West Valley City, Utah",84120,"Family Licensed",-112.0924399,40.6999283,"3270 s 8400 w, magna, ut 84044, usa"
"767","SLCAP Head Start - Neighborhood House","1050 W 500 S, Salt Lake City, Utah",84104,"Exempt Center",-112.0924399,40.6999283,"3270 s 8400 w, magna, ut 84044, usa"
"768","SLCAP Head Start - Salt Lake City (3900 S)","336 E 3900 S, Salt Lake City, Utah",84115,"Exempt Center",-112.0924399,40.6999283,"3270 s 8400 w, magna, ut 84044, usa"
"769","Utah Community Action Head Start - Meadowbrook","3900 S 400 W, Salt Lake City, Utah",84107,"Exempt Center",-112.0924399,40.6999283,"3270 s 8400 w, magna, ut 84044, usa"
"770","Utah Community Action Head Start - Midvale","328 W 8000 S, Midvale, Utah",84074,"Exempt Center",-112.0924399,40.6999283,"3270 s 8400 w, magna, ut 84044, usa"
"771","SLCAP Head Start - Taylorsville","4600 S Redwood Rd, Taylorsville, Utah",84123,"Exempt Center",-112.0924399,40.6999283,"3270 s 8400 w, magna, ut 84044, usa"
"772","Boys & Girls Club of Midvale","7830 South Chapel Street, Midvale, Utah",84047,"Exempt Afterschool Program",-112.0924399,40.6999283,"3270 s 8400 w, magna, ut 84044, usa"
"773","Carolyn's In-Home Daycare","5503 Bellagio Court, Herriman, Utah",84096,"Family Licensed",-112.0924399,40.6999283,"3270 s 8400 w, magna, ut 84044, usa"
"774","Sugar House Teen Program Of GSL","968 East Sugamont Drive, Salt Lake City, Utah",84106,"Exempt Afterschool Program",-112.0924399,40.6999283,"3270 s 8400 w, magna, ut 84044, usa"
"775","Boys & Girls Club Sugarhouse Teen Center","968 East Sugarmont Drive, Salt  Lake City, Utah",84106,"Exempt Afterschool Program",-112.0924399,40.6999283,"3270 s 8400 w, magna, ut 84044, usa"
"776","Sophia Hellenic Orthodox School","5341 South Highland Drive, Holladay, Utah",84117,"Exempt Afterschool Program",-112.0924399,40.6999283,"3270 s 8400 w, magna, ut 84044, usa"
"777","Children's Choice, Inc.","10750 South 1300 East, Sandy, Utah",84094,"Center Licensed",-112.0924399,40.6999283,"3270 s 8400 w, magna, ut 84044, usa"
"778","Family, Friends & Neighbor","1636 W Briar Rose Pl, Salt Lake City, Utah",84104,"Family, Friends & Neighbor",-112.0924399,40.6999283,"3270 s 8400 w, magna, ut 84044, usa"
"779","Family Licensed","P.O. Box 65944, Salt Lake City, Utah",84165,"Family Licensed",-112.0924399,40.6999283,"3270 s 8400 w, magna, ut 84044, usa"
"780","Family, Friends & Neighbor","3980 S Constitution Blvd, West Valley City, Utah",84119,"Family, Friends & Neighbor",-112.0924399,40.6999283,"3270 s 8400 w, magna, ut 84044, usa"
"781","The Children's Montessori Garden","2122 East Fort Union Boulevard, Cottonwood Heights, Utah",84121,"Center Licensed",-112.0924399,40.6999283,"3270 s 8400 w, magna, ut 84044, usa"
"782","Family Licensed","8713 S McGinnis Lane, West Jordan, Utah",84081,"Family Licensed",-112.0924399,40.6999283,"3270 s 8400 w, magna, ut 84044, usa"
"783","JoAnna Turner Daycare","6364 South Downhill Road, Taylorsville, Utah",84129,"Family Licensed",-112.0924399,40.6999283,"3270 s 8400 w, magna, ut 84044, usa"
"784","Family Licensed","1125 West Matthews Way, Riverton, Utah",84065,"Family Licensed",-112.0924399,40.6999283,"3270 s 8400 w, magna, ut 84044, usa"
"785","Wasatch Kids Camps","9696 Enos Way, South Jodan, Utah",84095,"Exempt Center",-112.0924399,40.6999283,"3270 s 8400 w, magna, ut 84044, usa"
"786","Mothers Morning Out at Hilltop UMC","10600 South 985 East, Sandy, Utah",84092,"Exempt Center",-112.0924399,40.6999283,"3270 s 8400 w, magna, ut 84044, usa"
"787","Smart Kids","2271 West 6200 South, Taylorsville, Utah",84129,"Center Licensed",-112.0924399,40.6999283,"3270 s 8400 w, magna, ut 84044, usa"
"788","Brighter Horizon Daycare","1220 West Hall Drive, West Jordan, Utah",84084,"Family Licensed",-112.0924399,40.6999283,"3270 s 8400 w, magna, ut 84044, usa"
"789","Kids Life Child Care Center","3818 West 4700 South, West Valley City, Utah",84129,"Center Licensed",-112.0924399,40.6999283,"3270 s 8400 w, magna, ut 84044, usa"
"790","Happy Place Daycare LLC","10341 S Alder Grove Cir, South Jordan, Utah",84095,"Family Licensed",-112.0924399,40.6999283,"3270 s 8400 w, magna, ut 84044, usa"
"791","Miss Swendy's Day School, Inc.","P.O. Box 999, West Jordan, Utah",84084,"Center Licensed",-112.0924399,40.6999283,"3270 s 8400 w, magna, ut 84044, usa"
"792","Salt Lake County After School Program at Kearns Jr. High","4040 West 5305 South, Kearns, Utah",84118,"Exempt Afterschool Program",-112.0924399,40.6999283,"3270 s 8400 w, magna, ut 84044, usa"
"793","East High School After School Tutoring","840 S 1300 E, Salt Lake City, Utah",84108,"Exempt Afterschool Program",-112.0924399,40.6999283,"3270 s 8400 w, magna, ut 84044, usa"
"794","Family, Friends & Neighbor","3729 Baneberry Ln, Taylorsville, Utah",84129,"Family, Friends & Neighbor",-112.0924399,40.6999283,"3270 s 8400 w, magna, ut 84044, usa"
"795","Family, Friends & Neighbor","780 N Sonata St, Salt Lake City, Utah",84116,"Family, Friends & Neighbor",-112.0924399,40.6999283,"3270 s 8400 w, magna, ut 84044, usa"
"796","Amy's Daycare","4438 S Dean Circle, West Valley City, Utah",84120,"Family Licensed",-112.0924399,40.6999283,"3270 s 8400 w, magna, ut 84044, usa"
"797","Little Hands Daycare","5491 South Walden Glen Dr., Murray, Utah",84123,"Family Licensed",-112.0924399,40.6999283,"3270 s 8400 w, magna, ut 84044, usa"
"798","Family Licensed","5586 South Tropicana Drive, Taylorsville, Utah",84129,"Family Licensed",-112.0924399,40.6999283,"3270 s 8400 w, magna, ut 84044, usa"
"799","Sunshine Academy WVC","4059 South 4000 West, West Valley City, Utah",84120,"Center Licensed",-112.0924399,40.6999283,"3270 s 8400 w, magna, ut 84044, usa"
"800","Small World Child Care, Inc.","4130 South 3600 West, West Valley City, Utah",84119,"Center Licensed",-112.0924399,40.6999283,"3270 s 8400 w, magna, ut 84044, usa"
"801","Residential Certified","4246 South 6485 West, West Valley City, Utah",84128,"Residential Certified",-112.0924399,40.6999283,"3270 s 8400 w, magna, ut 84044, usa"
"802","Residential Certified","4878 S Stone Crest Drive, Murray, Utah",84107,"Residential Certified",-112.0924399,40.6999283,"3270 s 8400 w, magna, ut 84044, usa"
"803","Concordia Learning Center","13249 S Redwood Rd, Riverton, Utah",84065,"Center Licensed",-112.0924399,40.6999283,"3270 s 8400 w, magna, ut 84044, usa"
"804","Salt Lake City Public Library","210 E 400 S, Salt Lake city, Utah",84111,"Exempt Center",-112.0924399,40.6999283,"3270 s 8400 w, magna, ut 84044, usa"
"805","Roosevelt Elementary School","3225 South 800 East, Salt Lake City, Utah",84106,"Exempt Afterschool Program",-112.0924399,40.6999283,"3270 s 8400 w, magna, ut 84044, usa"
"806","Promise South Salt Lake - Roosevelt Elementary","3225 S 800 E, Salt Lake City, Utah",84106,"Exempt Afterschool Program - DWS Approved",-112.0924399,40.6999283,"3270 s 8400 w, magna, ut 84044, usa"
"807","Family Licensed","4257 South 6115 West, West Valley City, Utah",84128,"Family Licensed",-112.0924399,40.6999283,"3270 s 8400 w, magna, ut 84044, usa"
"808","Granite School District - David Gourley Elementary School","4905 South 4300 West, Kearns, Utah",84118,"Exempt Afterschool Program",-112.0924399,40.6999283,"3270 s 8400 w, magna, ut 84044, usa"
"809","Lisa Washington Daycare","435 E Wilson Ave, Salt Lake City, Utah",84115,"Family Licensed",-112.0924399,40.6999283,"3270 s 8400 w, magna, ut 84044, usa"
"810","Family Licensed","4557 South Woodgrove Drive, West Valley City, Utah",84120,"Family Licensed",-112.0924399,40.6999283,"3270 s 8400 w, magna, ut 84044, usa"
"811","Family, Friends & Neighbor","3007 S Kendrick Dr., West Valley City, Utah",84119,"Family, Friends & Neighbor",-112.0924399,40.6999283,"3270 s 8400 w, magna, ut 84044, usa"
"812","The Utah House-St. Anthony Treatment Program","1370 S West Temple, Salt Lake City, Utah",84115,"Exempt Center",-112.0924399,40.6999283,"3270 s 8400 w, magna, ut 84044, usa"
"813","Residential Certified","6791 South 345 East, Midvale, Utah",84047,"Residential Certified",-112.0924399,40.6999283,"3270 s 8400 w, magna, ut 84044, usa"
"814","Tyler Library","8041 S Wood St, Midvale, Utah",84047,"Exempt Center",-112.0924399,40.6999283,"3270 s 8400 w, magna, ut 84044, usa"
"815","Dancing Moose Montessori-River Park","10995 River Front Parkway, South Jordan, Utah",84095,"Exempt Center",-112.0924399,40.6999283,"3270 s 8400 w, magna, ut 84044, usa"
"816","WVC Family Fitness Center Kidz Kamp","5415 West 3100 South, West Valley City, Utah",84120,"Licensed Afterschool Program",-112.0924399,40.6999283,"3270 s 8400 w, magna, ut 84044, usa"
"817","White Daycare","7946 S Lusterpointe Ln, West Jordan, Utah",84088,"Family Licensed",-112.0924399,40.6999283,"3270 s 8400 w, magna, ut 84044, usa"
"818","Copper Hills Elementary Afterschool Program","7635 W 3715 S, Magna, Utah",84044,"Exempt Afterschool Program",-112.0924399,40.6999283,"3270 s 8400 w, magna, ut 84044, usa"
"819","Kennedy Junior High Afterschool Program","4495 S 4800 W, West Valley City, Utah",84120,"Exempt Afterschool Program",-112.0924399,40.6999283,"3270 s 8400 w, magna, ut 84044, usa"
"820","Lake Ridge Elementary Afterschool Program","7400 West 3400 South, Magna, Utah",84044,"Exempt Afterschool Program",-112.0924399,40.6999283,"3270 s 8400 w, magna, ut 84044, usa"
"821","Kearns Junior High Afterschool Program","4040 W Sams Blvd, Kearns, Utah",84118,"Exempt Afterschool Program",-112.0924399,40.6999283,"3270 s 8400 w, magna, ut 84044, usa"
"822","Cyprus High School Afterschool Program","8623 W 3000 S, Magna, Utah",84044,"Registered Teen Program",-112.0924399,40.6999283,"3270 s 8400 w, magna, ut 84044, usa"
"823","Children's Corner #1","3534 Highland Drive, Salt Lake City, Utah",84106,"Center Licensed",-112.0924399,40.6999283,"3270 s 8400 w, magna, ut 84044, usa"
"824","Robert Frost Elementary Afterschool","3444 West 4400 South, West Valley City, Utah",84119,"Exempt Afterschool Program - DWS Approved",-112.0924399,40.6999283,"3270 s 8400 w, magna, ut 84044, usa"
"825","Fairyland Day Care","8645 South 910 East, Sandy, Utah",84094,"Family Licensed",-112.0924399,40.6999283,"3270 s 8400 w, magna, ut 84044, usa"
"826","Precious People Day Care","978 East 12300 South, Draper, Utah",84020,"Center Licensed",-112.0924399,40.6999283,"3270 s 8400 w, magna, ut 84044, usa"
"827","Lisa's Learning Corner","6180 West Pine Valley Lane, West Valley City, Utah",84118,"Family Licensed",-112.0924399,40.6999283,"3270 s 8400 w, magna, ut 84044, usa"
"828","Small Fri Academy III","131 West Woodrow Street, Murray, Utah",84107,"Center Licensed",-112.0924399,40.6999283,"3270 s 8400 w, magna, ut 84044, usa"
"829","Residential Certified","4779 South 3600 West, Taylorsville, Utah",84118,"Residential Certified",-112.0924399,40.6999283,"3270 s 8400 w, magna, ut 84044, usa"
"830","Utah Community Action Head Start - Hal J. Schultz","1307 S 900 W, Salt Lake City, Utah",84104,"Exempt Center",-112.0924399,40.6999283,"3270 s 8400 w, magna, ut 84044, usa"
"831","Julia's Child Care & Learning Center","4165 West 5345 South, Kearns, Utah",84118,"Center Licensed",-112.0924399,40.6999283,"3270 s 8400 w, magna, ut 84044, usa"
"832","First Baptist Child Care","777 South 1300 East, Salt Lake City, Utah",84102,"Center Licensed",-112.0924399,40.6999283,"3270 s 8400 w, magna, ut 84044, usa"
"833","City Academy Learning Extension","555 E 200 S, Salt Lake City, Utah",84102,"Registered Teen Program",-112.0924399,40.6999283,"3270 s 8400 w, magna, ut 84044, usa"
"834","Family, Friends & Neighbor","2892 S 8650 W, Magna, Utah",84044,"Family, Friends & Neighbor",-112.0924399,40.6999283,"3270 s 8400 w, magna, ut 84044, usa"
"835","Danielle's Care-A-Lot Childcare","6248 South Lobelia Drive, West Jordan, Utah",84041,"Family Licensed",-112.0924399,40.6999283,"3270 s 8400 w, magna, ut 84044, usa"
"836","Promise South Salt Lake - Granite Park Program","3031 S 200 E, Salt Lake City, Utah",84115,"Exempt Afterschool Program",-112.0924399,40.6999283,"3270 s 8400 w, magna, ut 84044, usa"
"837","American Preparatory Academy Draper Childcare","12894 Pony Express Rd, Suite 600, Draper, Utah",84020,"Exempt Center",-112.0924399,40.6999283,"3270 s 8400 w, magna, ut 84044, usa"
"838","American Preparatory Academy WV2 Childcare","3636 W 3100 S, West Valley City, Utah",84120,"Exempt Center",-112.0924399,40.6999283,"3270 s 8400 w, magna, ut 84044, usa"
"839","YMCA Taylorsville Elementary","2010 West 4230 South, Taylorsville, Utah",84119,"Exempt Afterschool Program",-112.0924399,40.6999283,"3270 s 8400 w, magna, ut 84044, usa"
"840","Study Buddies at Rose Park Elementary","1105 West 1000 North, Salt Lake City, Utah",84116,"Exempt Afterschool Program",-112.0924399,40.6999283,"3270 s 8400 w, magna, ut 84044, usa"
"841","Family Licensed","4115 South 380 East, Millcreek, Utah",84107,"Family Licensed",-112.0924399,40.6999283,"3270 s 8400 w, magna, ut 84044, usa"
"842","Blooming Minds Montessori","12447 South Crossing Drive Suite #4, Riverton, Utah",84096,"Center Licensed",-112.0924399,40.6999283,"3270 s 8400 w, magna, ut 84044, usa"
"843","Lydia's Daycare","1896 West Sergeant Drive, Salt Lake City, Utah",84116,"Family Licensed",-112.0924399,40.6999283,"3270 s 8400 w, magna, ut 84044, usa"
"844","Family Licensed","2100 West 4700 South, Taylorsville, Utah",84129,"Family Licensed",-112.0924399,40.6999283,"3270 s 8400 w, magna, ut 84044, usa"
"845","Salt Lake City Public Library - Glendale Branch","1375 S Concord St, Salt Lake City, Utah",84101,"Exempt Center",-112.0924399,40.6999283,"3270 s 8400 w, magna, ut 84044, usa"
"846","Family Licensed","4355 South Rupp Court, Taylorsville, Utah",84129,"Family Licensed",-112.0924399,40.6999283,"3270 s 8400 w, magna, ut 84044, usa"
"847","Intermountain Child Development Center","259 South 500 East, Salt Lake City, Utah",84102,"Center Licensed",-112.0924399,40.6999283,"3270 s 8400 w, magna, ut 84044, usa"
"848","Family Licensed","5374 South Alpine Drive, Murray, Utah",84107,"Family Licensed",-112.0924399,40.6999283,"3270 s 8400 w, magna, ut 84044, usa"
"849","Family Licensed","2745 South Davis Grove Lane, Salt Lake City, Utah",84115,"Family Licensed",-112.0924399,40.6999283,"3270 s 8400 w, magna, ut 84044, usa"
"850","Toys World Day Care","5702 Sunlight Drive, Kearns, Utah",84118,"Family Licensed",-112.0924399,40.6999283,"3270 s 8400 w, magna, ut 84044, usa"
"851","St. John's Community Child Development Center/ Redeemer Location","1955 East Stratford Avenue, Salt Lake City, Utah",84106,"Exempt Center",-112.0924399,40.6999283,"3270 s 8400 w, magna, ut 84044, usa"
"852","Far East Fitness SuperKool AfterSchool and Summer Fun Day Camps","2477 East Ft. Union Blvd, Cottonwood Heights, Utah",84121,"Exempt Afterschool Program",-112.0924399,40.6999283,"3270 s 8400 w, magna, ut 84044, usa"
